{"type":"Feature","properties":{"id":77752,"shape":"Polygon"},"geometry":{"type":"Polygon","coordinates":[[[22.132828,48.404785],[22.156494,48.402039],[22.158249,48.402222],[22.15831,48.402222],[22.159286,48.402313],[22.16922,48.409515],[22.201981,48.418152],[22.236084,48.415283],[22.271835,48.403442],[22.256958,48.373199],[22.25676,48.357269],[22.284348,48.358368],[22.291275,48.357544],[22.298706,48.349121],[22.298706,48.339294],[22.296432,48.327789],[22.297363,48.313995],[22.308121,48.293671],[22.357101,48.243073],[22.363617,48.238708],[22.37085,48.237366],[22.378601,48.238861],[22.386459,48.243042],[22.390488,48.244324],[22.394516,48.244751],[22.398758,48.244324],[22.418396,48.238953],[22.434204,48.236725],[22.449707,48.237671],[22.46904,48.24411],[22.473282,48.244476],[22.477417,48.243927],[22.481445,48.242584],[22.555756,48.177155],[22.568878,48.156494],[22.583038,48.124786],[22.600098,48.101105],[22.605469,48.097015],[22.608047,48.096832],[22.62117,48.101746],[22.693207,48.101746],[22.711609,48.105804],[22.728561,48.113129],[22.745712,48.116272],[22.762039,48.109253],[22.765564,48.104523],[22.801422,48.090942],[22.830978,48.072418],[22.844315,48.061035],[22.854752,48.047272],[22.861572,48.028381],[22.857956,48.018005],[22.851349,48.008789],[22.849487,47.993134],[22.832428,47.978912],[22.840805,47.966766],[22.877594,47.946716],[22.897858,47.950958],[22.915833,47.959167],[22.92421,47.972717],[22.915726,47.992981],[22.924103,48.004822],[22.939301,48.005646],[22.957077,48.000092],[22.972473,47.992859],[22.988174,47.986359],[23.00441,47.983063],[23.020325,47.984711],[23.06311,48.007446],[23.076553,48.024506],[23.098969,48.071198],[23.118607,48.091522],[23.139069,48.098114],[23.161713,48.095886],[23.231369,48.079712],[23.248627,48.071198],[23.289764,48.038177],[23.337509,48.010864],[23.360046,47.993134],[23.367279,47.99118],[23.374725,47.99054],[23.382156,47.991119],[23.390121,47.993042],[23.391571,47.993439],[23.393021,47.993561],[23.394455,47.993439],[23.396011,47.993042],[23.460815,47.971313],[23.481583,47.972137],[23.485474,47.974213],[23.48851,47.97583],[23.494293,47.98053],[23.499359,47.986206],[23.503708,47.992859],[23.51445,47.998962],[23.52562,48.00116],[23.563232,48.005737],[23.581741,48.001556],[23.646118,47.996582],[23.687256,47.987244],[23.71051,47.985077],[23.780075,47.987488],[23.796509,47.981964],[23.848389,47.949646],[23.855209,47.934204],[23.876602,47.934418],[23.977264,47.96228],[24.008789,47.961182],[24.025223,47.953247],[24.074936,47.944153],[24.094772,47.937927],[24.131165,47.91452],[24.148727,47.912109],[24.150177,47.912903],[24.20929,47.897583],[24.231003,47.897003],[24.297867,47.919769],[24.347168,47.920868],[24.38623,47.943665],[24.40918,47.952057],[24.428513,47.952515],[24.48555,47.943176],[24.542084,47.943817],[24.56163,47.940521],[24.569794,47.937286],[24.608444,47.921906],[24.633667,47.908264],[24.649261,47.895203],[24.655991,47.879272],[24.656921,47.86618],[24.661469,47.853851],[24.679138,47.840118],[24.71283,47.825897],[24.793655,47.804443],[24.808228,47.795715],[24.820724,47.784058],[24.854416,47.743103],[24.877777,47.718719],[24.896591,47.710052],[24.928848,47.713928],[24.942368,47.715546],[25.01741,47.724579],[25.079941,47.74292],[25.080048,47.743073],[25.080246,47.743103],[25.121902,47.770294],[25.218948,47.878448],[25.261734,47.89856],[25.752502,47.93457],[25.818344,47.952576],[25.870956,47.957001],[25.90123,47.965942],[25.918076,47.96814],[25.965729,47.964874],[26.029282,47.977783],[26.102524,47.978241],[26.125717,47.978394],[26.17305,47.993134],[26.182663,48.003265],[26.204773,48.037354],[26.217072,48.048004],[26.243225,48.062897],[26.255325,48.072327],[26.270721,48.093597],[26.286942,48.124695],[26.297485,48.156311],[26.296143,48.178986],[26.303482,48.212036],[26.311752,48.209717],[26.330246,48.208496],[26.347305,48.212067],[26.380478,48.223206],[26.39743,48.226196],[26.444656,48.227722],[26.461304,48.230377],[26.587387,48.249329],[26.617874,48.258942],[26.618607,48.267181],[26.625122,48.282867],[26.636078,48.294861],[26.669098,48.308807],[26.673996,48.321686],[26.679794,48.33017],[26.699432,48.325104],[26.712967,48.31488],[26.723618,48.302582],[26.735916,48.291809],[26.754562,48.286133],[26.774353,48.28717],[26.785721,48.294098],[26.79007,48.307037],[26.789337,48.325928],[26.784073,48.345154],[26.778183,48.357178],[26.777512,48.36615],[26.788055,48.375946],[26.793579,48.376251],[26.810059,48.371857],[26.81694,48.371704],[26.825623,48.377747],[26.828415,48.385132],[26.831924,48.391357],[26.842773,48.393738],[26.875946,48.383972],[26.908722,48.365234],[26.943237,48.351257],[26.981064,48.355652],[26.99057,48.362366],[26.997803,48.361542],[27.004623,48.358734],[27.015579,48.359375],[27.027679,48.357727],[27.033051,48.360199],[27.031815,48.365234],[27.028503,48.370789],[27.027786,48.374756],[27.028198,48.381378],[27.025406,48.389862],[27.026337,48.397095],[27.037384,48.399658],[27.048035,48.397644],[27.068817,48.388855],[27.175781,48.361786],[27.208542,48.360596],[27.246475,48.373718],[27.251923,48.378296],[27.306,48.423645],[27.342178,48.436096],[27.361404,48.4328],[27.389832,48.414978],[27.403473,48.411469],[27.420212,48.417145],[27.480881,48.451385],[27.503815,48.472351],[27.545166,48.472351],[27.557053,48.474335],[27.582993,48.486023],[27.604797,48.4841],[27.606873,48.457794],[27.627014,48.451233],[27.75177,48.451965],[27.785248,48.441559],[27.849854,48.409607],[27.864838,48.398895],[27.885361,48.378418],[27.896667,48.367157],[27.904526,48.362457],[27.926437,48.339417],[27.967056,48.328857],[28.003174,48.325867],[28.055939,48.321472],[28.076401,48.314911],[28.092834,48.302063],[28.098312,48.284088],[28.078674,48.244904],[28.093246,48.237427],[28.11557,48.236725],[28.131073,48.239563],[28.162079,48.257172],[28.178513,48.25885],[28.185745,48.242371],[28.189362,48.223022],[28.199905,48.211731],[28.216949,48.20813],[28.240311,48.211609],[28.261703,48.21994],[28.277527,48.229095],[28.294464,48.236481],[28.340561,48.240082],[28.357727,48.238586],[28.368164,48.230621],[28.370026,48.211609],[28.363358,48.19101],[28.352249,48.181854],[28.337875,48.175476],[28.322174,48.163208],[28.315552,48.149261],[28.317413,48.135345],[28.328583,48.126984],[28.349564,48.1297],[28.36496,48.141479],[28.375549,48.156647],[28.388626,48.168579],[28.411575,48.170685],[28.427277,48.163361],[28.43689,48.149841],[28.435654,48.134674],[28.419006,48.122223],[28.447433,48.082733],[28.459366,48.074432],[28.479584,48.064911],[28.490021,48.065491],[28.493729,48.074799],[28.494156,48.091827],[28.499786,48.108887],[28.501068,48.112823],[28.501099,48.112885],[28.519318,48.149109],[28.541595,48.155945],[28.573624,48.154968],[28.665619,48.129333],[28.735062,48.128662],[28.77124,48.124451],[28.79924,48.111786],[28.805908,48.10379],[28.80835,48.096558],[28.809174,48.089752],[28.811539,48.082886],[28.82756,48.057007],[28.830765,48.030853],[28.83252,48.024811],[28.839249,48.01828],[28.855682,48.007904],[28.862076,48.000488],[28.882553,47.976746],[28.914795,47.953125],[28.936081,47.942139],[28.950348,47.934784],[28.980835,47.926361],[29.017212,47.931061],[29.061035,47.969757],[29.092712,47.980164],[29.110031,47.979645],[29.123978,47.975983],[29.136276,47.96817],[29.147964,47.955353],[29.155807,47.93985],[29.164597,47.905579],[29.172562,47.890991],[29.186615,47.883636],[29.225998,47.87558],[29.236023,47.870697],[29.232758,47.857056],[29.217407,47.842865],[29.198914,47.829468],[29.186722,47.818207],[29.177719,47.80069],[29.177826,47.789703],[29.187439,47.783203],[29.221954,47.774811],[29.234726,47.766785],[29.238602,47.755981],[29.226669,47.743225],[29.196945,47.717499],[29.191467,47.686249],[29.192398,47.650909],[29.182068,47.61319],[29.156174,47.582764],[29.130493,47.559601],[29.117416,47.533325],[29.130386,47.493195],[29.130493,47.493073],[29.1306,47.493042],[29.130646,47.49292],[29.137177,47.483978],[29.139999,47.480133],[29.155609,47.449982],[29.163879,47.439362],[29.182068,47.429871],[29.192398,47.435791],[29.201859,47.446564],[29.218338,47.451599],[29.232605,47.44632],[29.250687,47.425354],[29.281387,47.411469],[29.288208,47.400757],[29.292709,47.388855],[29.300812,47.378174],[29.314667,47.372711],[29.330383,47.370483],[29.345825,47.365814],[29.358902,47.352692],[29.364075,47.336853],[29.364487,47.322418],[29.367584,47.308197],[29.37088,47.304413],[29.380814,47.292969],[29.394455,47.284698],[29.409546,47.279724],[29.425568,47.278656],[29.441681,47.282104],[29.459152,47.293488],[29.46608,47.307434],[29.470627,47.322723],[29.480865,47.338257],[29.501068,47.339813],[29.520966,47.338898],[29.539871,47.334198],[29.556564,47.324036],[29.570053,47.306763],[29.579254,47.2836],[29.580185,47.260437],[29.56871,47.243134],[29.544006,47.234222],[29.54039,47.212524],[29.550629,47.160156],[29.54483,47.135559],[29.530365,47.123688],[29.508667,47.119385],[29.480865,47.117462],[29.478592,47.114624],[29.477859,47.111542],[29.478683,47.108459],[29.480865,47.105225],[29.511444,47.06601],[29.520126,47.059906],[29.530991,47.06601],[29.539719,47.078857],[29.551346,47.090179],[29.57016,47.091431],[29.583389,47.085205],[29.594864,47.074585],[29.602097,47.060974],[29.603027,47.045746],[29.595428,47.032135],[29.583389,47.022766],[29.572479,47.011749],[29.564987,46.974487],[29.560623,46.961243],[29.559814,46.958832],[29.558685,46.94574],[29.567474,46.934631],[29.573151,46.933716],[29.59848,46.935364],[29.607574,46.932007],[29.623276,46.919525],[29.631851,46.914398],[29.648087,46.9104],[29.680847,46.908539],[29.696136,46.904663],[29.712479,46.893433],[29.735825,46.867188],[29.75412,46.858002],[29.785751,46.854645],[29.815201,46.856598],[29.843628,46.854126],[29.872208,46.837708],[29.876907,46.83078],[29.884872,46.812653],[29.889618,46.807159],[29.898514,46.806641],[29.9077,46.810913],[29.917419,46.813965],[29.928177,46.809753],[29.930649,46.80307],[29.93045,46.781616],[29.931793,46.77243],[29.935669,46.765137],[29.946671,46.750732],[29.951111,46.743103],[29.952606,46.72467],[29.944397,46.662476],[29.940262,46.650787],[29.93541,46.641846],[29.931885,46.632355],[29.931274,46.619141],[29.934937,46.608826],[29.947388,46.588318],[29.949661,46.578857],[29.938095,46.557312],[29.916077,46.554352],[29.898819,46.553101],[29.901917,46.530823],[29.916077,46.518799],[29.960205,46.50592],[29.962067,46.503418],[29.967026,46.493835],[29.970551,46.49173],[29.977051,46.493164],[29.989258,46.498657],[29.994934,46.498505],[30.002838,46.494202],[30.009399,46.488068],[30.021698,46.470642],[30.014053,46.462006],[30.059998,46.436798],[30.076996,46.422821],[30.086914,46.428864],[30.102005,46.430725],[30.11824,46.42868],[30.131561,46.422821],[30.107178,46.391876],[30.081131,46.374176],[30.037262,46.368927],[29.918655,46.373627],[29.902542,46.371155],[29.884659,46.364197],[29.847763,46.341461],[29.828125,46.339386],[29.808182,46.354675],[29.806168,46.361542],[29.806732,46.38089],[29.805084,46.389984],[29.800323,46.398346],[29.779556,46.421082],[29.726944,46.45578],[29.714127,46.471161],[29.713821,46.443054],[29.702866,46.428314],[29.682709,46.422913],[29.654388,46.422668],[29.64798,46.416382],[29.652939,46.391876],[29.645508,46.37558],[29.632065,46.366058],[29.615631,46.361816],[29.598572,46.363037],[29.582977,46.369629],[29.569427,46.382263],[29.555634,46.404175],[29.541428,46.413025],[29.527466,46.416626],[29.496048,46.420807],[29.480865,46.42514],[29.475067,46.432251],[29.473312,46.439789],[29.475281,46.44754],[29.480865,46.455505],[29.486237,46.462463],[29.48819,46.46936],[29.486435,46.475861],[29.480865,46.482025],[29.457611,46.48468],[29.456711,46.484344],[29.436829,46.476685],[29.418228,46.462463],[29.37471,46.416168],[29.362106,46.415924],[29.344223,46.434143],[29.32077,46.468719],[29.306717,46.471985],[29.289139,46.45163],[29.285934,46.439484],[29.290695,46.41925],[29.29007,46.410217],[29.283249,46.3974],[29.278183,46.395874],[29.271362,46.3974],[29.259171,46.394348],[29.222885,46.366455],[29.200668,46.357117],[29.183716,46.367157],[29.183411,46.377594],[29.190338,46.387177],[29.19928,46.396484],[29.205627,46.406097],[29.207596,46.417877],[29.206772,46.502502],[29.200211,46.523956],[29.184235,46.538025],[29.183044,46.538025],[29.162735,46.538086],[29.074936,46.503662],[29.055908,46.498718],[29.020325,46.489502],[28.945801,46.454773],[28.925446,46.43277],[28.919235,46.404633],[28.927307,46.368011],[28.94487,46.320709],[28.945801,46.304962],[28.939911,46.286987],[28.932877,46.272614],[28.933502,46.258972],[28.950607,46.243103],[28.95076,46.243042],[28.9841,46.221191],[29.009827,46.204346],[29.01535,46.182587],[29.003479,46.158936],[28.980835,46.132111],[28.946426,46.105072],[28.938766,46.089264],[28.941147,46.064667],[28.958923,46.020996],[28.956863,46.001373],[28.931946,45.993134],[28.757599,45.961151],[28.740234,45.953217],[28.729172,45.938629],[28.728394,45.921936],[28.742294,45.887329],[28.746429,45.870575],[28.745041,45.850464],[28.738266,45.837555],[28.725555,45.828766],[28.70639,45.821106],[28.677292,45.816559],[28.669739,45.812012],[28.669388,45.806274],[28.671921,45.797241],[28.673264,45.786865],[28.669739,45.777283],[28.6436,45.766479],[28.576675,45.761902],[28.560608,45.743195],[28.563522,45.735474],[28.567627,45.724579],[28.561432,45.716583],[28.532486,45.710052],[28.515228,45.701996],[28.504181,45.693695],[28.480927,45.669434],[28.473999,45.657928],[28.48288,45.650726],[28.498489,45.644287],[28.511307,45.63504],[28.516891,45.620972],[28.518753,45.607025],[28.523087,45.593231],[28.53688,45.579773],[28.510422,45.571014],[28.504593,45.56723],[28.503738,45.566101],[28.49823,45.558716],[28.497971,45.556427],[28.500046,45.554565],[28.506454,45.520569],[28.501999,45.508728],[28.480927,45.501953],[28.41684,45.503784],[28.341904,45.517609],[28.270493,45.521484],[28.270416,45.521454],[28.21727,45.493347],[28.217163,45.493164],[28.217163,45.493134],[28.208481,45.481384],[28.201553,45.468842],[28.199493,45.461761],[28.212921,45.450195],[28.215134,45.450348],[28.237625,45.452057],[28.266876,45.44046],[28.286407,45.421722],[28.281189,45.401825],[28.310806,45.347809],[28.330231,45.322906],[28.353287,45.312408],[28.370224,45.309204],[28.405167,45.295044],[28.494156,45.27887],[28.577042,45.248077],[28.710052,45.226929],[28.74736,45.230469],[28.778687,45.231079],[28.791397,45.234955],[28.802658,45.244141],[28.774292,45.253357],[28.767258,45.257751],[28.762558,45.265137],[28.759659,45.27417],[28.76152,45.28183],[28.790146,45.292053],[28.788605,45.307098],[28.789734,45.321411],[28.816299,45.32605],[28.831802,45.322296],[28.858109,45.309052],[28.880844,45.306152],[28.893616,45.299805],[28.910034,45.287354],[28.929886,45.279083],[28.952835,45.285065],[28.957382,45.291992],[28.960419,45.311279],[28.966476,45.319855],[28.973648,45.323669],[28.982437,45.3255],[29.004608,45.32605],[29.018143,45.330872],[29.069519,45.360779],[29.110291,45.369049],[29.127502,45.374542],[29.141861,45.385071],[29.150131,45.387848],[29.174316,45.388947],[29.179382,45.391846],[29.183105,45.398987],[29.191574,45.406158],[29.206665,45.415405],[29.228165,45.423737],[29.244598,45.424194],[29.260818,45.422028],[29.281799,45.422272],[29.290482,45.424591],[29.299271,45.428894],[29.307022,45.434113],[29.312805,45.439331],[29.322113,45.443817],[29.332962,45.442108],[29.343918,45.43808],[29.353729,45.435913],[29.430634,45.430389],[29.569687,45.394928],[29.616348,45.365326],[29.628143,45.360779],[29.650253,45.3461],[29.667099,45.311859],[29.672272,45.272919],[29.659241,45.244141],[29.664978,45.237854],[29.666473,45.230621],[29.6642,45.223175],[29.659073,45.215881],[29.659073,45.215851],[29.674484,45.213562],[29.692383,45.216736],[29.70874,45.223328],[29.728027,45.236877],[29.729736,45.237732],[29.728683,45.239319],[29.727707,45.247742],[29.729736,45.258118],[29.741211,45.282196],[29.74292,45.290466],[29.751465,45.304138],[29.754883,45.312683],[29.756195,45.321228],[29.753906,45.364075],[29.750168,45.385803],[29.741867,45.40451],[29.727707,45.415649],[29.747803,45.414276],[29.755859,45.427856],[29.754639,45.447235],[29.747406,45.46344],[29.732269,45.475708],[29.724457,45.46814],[29.719727,45.451355],[29.713226,45.436218],[29.708664,45.452759],[29.702148,45.456604],[29.694336,45.455505],[29.685883,45.457245],[29.686523,45.453552],[29.681488,45.450165],[29.675293,45.449585],[29.672363,45.453827],[29.672363,45.477112],[29.656006,45.474182],[29.653809,45.463989],[29.655609,45.451843],[29.651855,45.442993],[29.640793,45.441772],[29.629639,45.446899],[29.621094,45.454407],[29.605713,45.478149],[29.605148,45.487],[29.62085,45.490784],[29.626709,45.495056],[29.631683,45.504456],[29.638031,45.513855],[29.648438,45.518127],[29.661621,45.525848],[29.694504,45.562195],[29.707031,45.573303],[29.681152,45.555115],[29.66684,45.548157],[29.648438,45.54538],[29.629074,45.546692],[29.61499,45.55011],[29.589691,45.559052],[29.599365,45.604431],[29.597168,45.652283],[29.603195,45.691284],[29.637543,45.7099],[29.630707,45.721497],[29.625336,45.728241],[29.622726,45.736206],[29.623871,45.751526],[29.629562,45.763489],[29.647949,45.781189],[29.651855,45.789001],[29.648682,45.793579],[29.634613,45.80661],[29.631348,45.813538],[29.633545,45.82135],[29.638184,45.826294],[29.642822,45.827209],[29.647461,45.818542],[29.65332,45.813843],[29.673996,45.801575],[29.677582,45.800171],[29.68042,45.798279],[29.685883,45.792419],[29.693848,45.781311],[29.69223,45.77533],[29.685791,45.7677],[29.679199,45.751526],[29.685303,45.704224],[29.682617,45.696838],[29.705246,45.688416],[29.723969,45.667419],[29.735031,45.640564],[29.733734,45.614319],[29.745941,45.62262],[29.774094,45.629578],[29.789063,45.635437],[29.784348,45.643616],[29.783859,45.646606],[29.786133,45.648895],[29.789063,45.655243],[29.80957,45.64856],[29.82666,45.654236],[29.842529,45.663879],[29.860107,45.668915],[29.86499,45.672333],[29.858246,45.679871],[29.843018,45.690643],[29.816406,45.697693],[29.803223,45.704163],[29.795746,45.717346],[29.802414,45.737488],[29.82373,45.74762],[29.85083,45.751099],[29.874023,45.751526],[29.876801,45.753601],[29.878754,45.75827],[29.881683,45.763],[29.887695,45.765106],[29.896164,45.763611],[29.89682,45.759888],[29.895752,45.755341],[29.898193,45.751526],[29.919678,45.74054],[29.927414,45.733704],[29.932373,45.724182],[29.939301,45.751526],[29.930176,45.759094],[29.922363,45.769409],[29.917725,45.782898],[29.918701,45.799866],[29.92627,45.813782],[29.935059,45.816132],[29.939133,45.810425],[29.932373,45.799866],[29.932373,45.792419],[29.943039,45.783508],[29.952881,45.771942],[29.958252,45.794617],[29.960449,45.819153],[29.968506,45.838928],[29.990723,45.847046],[30.014648,45.839661],[30.061203,45.813446],[30.06958,45.816711],[30.072433,45.820984],[30.078369,45.819397],[30.08432,45.815613],[30.08667,45.813538],[30.094574,45.814819],[30.096436,45.81842],[30.096848,45.8237],[30.100586,45.830292],[30.102295,45.836853],[30.105804,45.863464],[30.110596,45.875061],[30.118332,45.884491],[30.127441,45.891327],[30.135254,45.88913],[30.140961,45.832947],[30.138428,45.819763],[30.204926,45.855835],[30.261398,45.895477],[30.371262,45.997925],[30.494141,46.080444],[30.503418,46.09436],[30.523285,46.133759],[30.531982,46.141907],[30.547699,46.147766],[30.561859,46.161682],[30.583496,46.190308],[30.653488,46.259583],[30.682373,46.29953],[30.686768,46.309021],[30.686523,46.320007],[30.679367,46.328308],[30.656494,46.338989],[30.651855,46.344543],[30.660645,46.350891],[30.714523,46.347961],[30.731293,46.358582],[30.772461,46.396423],[30.77475,46.400604],[30.783539,46.430847],[30.786789,46.436493],[30.790375,46.441467],[30.792969,46.443542],[30.798187,46.446411],[30.793457,46.452332],[30.785889,46.457245],[30.782074,46.457214],[30.775238,46.477661],[30.758301,46.502563],[30.754883,46.515839],[30.76091,46.524353],[30.790695,46.552917],[30.802582,46.560242],[30.8125,46.560028],[30.854492,46.553406],[30.866943,46.555786],[30.926025,46.58429],[30.939133,46.587708],[30.950439,46.584106],[30.959229,46.583374],[30.982422,46.597382],[30.991379,46.601257],[31.013031,46.603333],[31.054535,46.612732],[31.108154,46.617737],[31.159515,46.628967],[31.186859,46.62912],[31.187988,46.628906],[31.256683,46.616394],[31.275558,46.607391],[31.282959,46.614868],[31.295746,46.608856],[31.323898,46.60614],[31.337646,46.601257],[31.352219,46.609314],[31.396652,46.626038],[31.416183,46.62912],[31.428558,46.637634],[31.462646,46.675232],[31.478195,46.683777],[31.47966,46.687195],[31.498291,46.707642],[31.505859,46.720398],[31.502121,46.727722],[31.470703,46.745331],[31.461914,46.748657],[31.455811,46.754578],[31.453781,46.769104],[31.451904,46.775452],[31.440674,46.800476],[31.456055,46.796021],[31.466797,46.783569],[31.481613,46.75885],[31.495605,46.750702],[31.508301,46.745178],[31.519531,46.747437],[31.522949,46.750305],[31.52417,46.754028],[31.543457,46.774841],[31.549316,46.779968],[31.557373,46.78363],[31.57666,46.789368],[31.583984,46.79364],[31.591309,46.805969],[31.597824,46.820435],[31.606125,46.826385],[31.618164,46.813446],[31.572113,46.766296],[31.559814,46.75885],[31.560226,46.749084],[31.546143,46.7276],[31.490891,46.663391],[31.480957,46.646423],[31.485031,46.632263],[31.493011,46.628723],[31.50415,46.627991],[31.525391,46.62912],[31.534515,46.627167],[31.548508,46.618042],[31.556808,46.614868],[31.578857,46.61731],[31.588715,46.629578],[31.597168,46.643188],[31.614426,46.649597],[31.674072,46.653198],[31.771484,46.627502],[31.814697,46.623016],[31.858398,46.62912],[31.870117,46.633118],[31.89209,46.643616],[31.899414,46.649597],[31.908539,46.66272],[31.907471,46.669159],[31.902344,46.676971],[31.899414,46.69397],[31.906738,46.73822],[31.902832,46.745178],[31.865234,46.779968],[31.864746,46.80658],[31.877441,46.828247],[31.898605,46.842896],[31.923187,46.848267],[31.945068,46.859497],[31.963379,46.885681],[31.972824,46.915344],[31.968262,46.936981],[31.947601,46.928162],[31.925629,46.922913],[31.907715,46.926453],[31.899414,46.943817],[31.904297,46.96051],[31.917725,46.976257],[31.947113,46.999084],[31.914063,47.003052],[31.868988,46.99884],[31.837402,47.008423],[31.844727,47.05368],[31.852295,47.060516],[31.866455,47.077026],[31.874268,47.093811],[31.861816,47.101501],[31.856613,47.103638],[31.851563,47.108337],[31.844727,47.112976],[31.819992,47.117065],[31.815598,47.12262],[31.816254,47.180847],[31.806152,47.192688],[31.761719,47.2005],[31.816742,47.197083],[31.830566,47.186737],[31.834473,47.178925],[31.834717,47.168182],[31.837891,47.149231],[31.845551,47.134003],[31.855713,47.129608],[31.868164,47.127319],[31.882324,47.118591],[31.89682,47.092712],[31.893234,47.06842],[31.865234,47.026337],[31.881104,47.015015],[31.900146,47.013611],[31.943695,47.018921],[31.970947,47.016327],[31.976898,47.009338],[31.968918,46.998657],[31.939209,46.967957],[31.935883,46.954803],[31.946045,46.946655],[31.995941,46.940369],[32.006683,46.930481],[32.007477,46.915222],[32.002441,46.895447],[31.981689,46.860321],[31.954758,46.831421],[31.936203,46.800354],[31.940277,46.75885],[31.950195,46.74176],[31.961426,46.7276],[31.96489,46.722076],[31.970703,46.71286],[31.974457,46.69397],[31.979828,46.677063],[31.99292,46.65741],[32.008942,46.639771],[32.022797,46.62912],[32.039551,46.623474],[32.101074,46.614868],[32.11792,46.606873],[32.13208,46.570282],[32.146332,46.560242],[32.169922,46.58075],[32.180176,46.581757],[32.199707,46.586487],[32.210938,46.587585],[32.220062,46.590698],[32.236816,46.604431],[32.248199,46.607391],[32.253754,46.604706],[32.269287,46.587585],[32.335785,46.562134],[32.409027,46.568909],[32.543701,46.621704],[32.567383,46.618469],[32.594574,46.628296],[32.621826,46.641785],[32.645508,46.649597],[32.633789,46.633118],[32.619385,46.623505],[32.60376,46.615692],[32.588379,46.604309],[32.570953,46.596405],[32.52475,46.592712],[32.505707,46.584106],[32.435699,46.543152],[32.408356,46.517273],[32.427002,46.49884],[32.399658,46.478333],[32.360992,46.466858],[32.317535,46.464325],[32.276123,46.470886],[32.221527,46.495422],[32.111664,46.512421],[32.091156,46.512817],[32.033447,46.506287],[31.947113,46.519257],[31.861816,46.519257],[31.851746,46.521942],[31.816589,46.483154],[31.816483,46.483093],[31.816284,46.483002],[31.910645,46.455872],[31.95459,46.450989],[31.991699,46.453552],[32.007813,46.448944],[32.053558,46.405975],[32.061859,46.393768],[32.055176,46.390564],[32.041656,46.390839],[32.029633,46.388977],[31.977295,46.355286],[31.968262,46.351044],[31.892578,46.341125],[31.837402,46.349548],[31.816742,46.347961],[31.799805,46.342224],[31.779953,46.331757],[31.767334,46.318176],[31.772461,46.302673],[31.785889,46.292358],[31.801117,46.285034],[31.819183,46.280579],[31.882324,46.279114],[31.889893,46.283813],[31.887939,46.295135],[31.884033,46.308655],[31.885742,46.320007],[31.96843,46.275696],[32.018066,46.257507],[32.05014,46.266052],[32.077881,46.249481],[32.115387,46.214539],[32.128662,46.209686],[32.142578,46.207977],[32.187347,46.196716],[32.213135,46.193054],[32.239258,46.195251],[32.269287,46.204559],[32.266754,46.194794],[32.260895,46.188599],[32.241943,46.176636],[32.247406,46.170715],[32.251709,46.15686],[32.255615,46.149353],[32.257324,46.144958],[32.260498,46.132141],[32.262451,46.128235],[32.267731,46.126587],[32.280518,46.127563],[32.30249,46.116669],[32.503418,46.076111],[32.543701,46.080444],[32.551025,46.08429],[32.567535,46.096558],[32.577789,46.101532],[32.588226,46.10437],[32.71402,46.120056],[32.751312,46.133026],[32.766266,46.135681],[32.789795,46.134338],[32.844574,46.121399],[32.85318,46.120331],[32.876129,46.121399],[32.88266,46.120667],[32.891602,46.116669],[32.899261,46.115204],[32.913086,46.115173],[33.018219,46.127655],[33.032471,46.140991],[33.023438,46.169861],[33.081787,46.149353],[33.103271,46.138367],[33.112793,46.135681],[33.122894,46.135864],[33.135498,46.140686],[33.143219,46.141907],[33.175049,46.153137],[33.194977,46.17868],[33.211914,46.206268],[33.235107,46.223816],[33.225342,46.154114],[33.221832,46.141479],[33.2146,46.128235],[33.293457,46.135681],[33.315674,46.130981],[33.317719,46.11969],[33.306885,46.10614],[33.290283,46.094696],[33.296387,46.093567],[33.301422,46.093628],[33.305817,46.092346],[33.310791,46.08728],[33.331055,46.107483],[33.357758,46.103821],[33.384277,46.087585],[33.415283,46.058075],[33.423828,46.053284],[33.485504,46.053162],[33.506348,46.046814],[33.516266,46.046326],[33.495758,46.067841],[33.505615,46.080261],[33.53125,46.085907],[33.557861,46.08728],[33.557861,46.094696],[33.53125,46.106873],[33.532471,46.121521],[33.549805,46.136414],[33.571533,46.149353],[33.596527,46.155731],[33.613434,46.145203],[33.620396,46.136311],[33.643555,46.104675],[33.648438,46.090027],[33.638824,46.078308],[33.62793,46.06781],[33.629547,46.05658],[33.642242,46.022156],[33.643555,46.014954],[33.636475,46.006409],[33.631104,45.996521],[33.631989,45.988251],[33.643555,45.984924],[33.64682,45.979706],[33.638428,45.968231],[33.619873,45.950745],[33.631989,45.944397],[33.639008,45.947327],[33.645844,45.953552],[33.657227,45.956909],[33.682465,45.958435],[33.739594,45.947815],[33.758636,45.940857],[33.777008,45.929626],[33.75943,45.922241],[33.72525,45.916077],[33.708649,45.909729],[33.693512,45.91449],[33.691071,45.89621],[33.693115,45.872528],[33.69165,45.860718],[33.670166,45.858521],[33.658936,45.859314],[33.654053,45.864441],[33.650543,45.870667],[33.641602,45.876038],[33.630371,45.880005],[33.619873,45.881805],[33.610199,45.880737],[33.598633,45.87738],[33.578369,45.868134],[33.554199,45.847046],[33.530121,45.841858],[33.519867,45.840881],[33.50766,45.842957],[33.489502,45.852356],[33.482178,45.854462],[33.466949,45.850067],[33.424957,45.830933],[33.410004,45.826599],[33.379639,45.80304],[33.374268,45.796509],[33.338135,45.785614],[33.265381,45.753784],[33.230133,45.750916],[33.194824,45.765106],[33.178558,45.780243],[33.169189,45.784393],[33.160645,45.778778],[33.15918,45.768494],[33.166748,45.762573],[33.176422,45.758911],[33.181,45.755188],[33.176117,45.743103],[33.163422,45.736267],[32.936768,45.662476],[32.868164,45.630066],[32.837738,45.608093],[32.830719,45.601013],[32.826996,45.59552],[32.82486,45.586975],[32.826416,45.579407],[32.829742,45.57019],[32.827881,45.562378],[32.813965,45.559052],[32.802399,45.560242],[32.783051,45.565369],[32.772949,45.566528],[32.757813,45.564636],[32.749756,45.559631],[32.743805,45.552856],[32.734711,45.54538],[32.720459,45.537323],[32.704834,45.531067],[32.686188,45.526978],[32.663086,45.525574],[32.643555,45.521667],[32.525146,45.45813],[32.495117,45.435516],[32.481598,45.408875],[32.48584,45.394897],[32.512848,45.340546],[32.5354,45.338013],[32.57016,45.325165],[32.591461,45.320129],[32.663086,45.320129],[32.677399,45.325989],[32.712738,45.353149],[32.728516,45.361053],[32.750153,45.363342],[32.899261,45.354218],[32.940582,45.342499],[32.976563,45.325653],[33.043213,45.285339],[33.051758,45.281616],[33.069336,45.27655],[33.078613,45.271667],[33.089996,45.256653],[33.09848,45.248108],[33.123291,45.237854],[33.158356,45.206757],[33.173584,45.196594],[33.218506,45.187439],[33.240082,45.179626],[33.249359,45.165588],[33.259613,45.156067],[33.282562,45.160522],[33.317627,45.175476],[33.355133,45.18573],[33.396484,45.189758],[33.413422,45.184509],[33.469086,45.148804],[33.537445,45.117371],[33.5625,45.093933],[33.578369,45.053192],[33.581787,45.027466],[33.585205,45.018433],[33.602783,44.993378],[33.605621,44.987427],[33.608551,44.970581],[33.619629,44.931458],[33.619873,44.90863],[33.616058,44.889099],[33.609222,44.871704],[33.598297,44.859314],[33.55957,44.849731],[33.546051,44.836884],[33.537354,44.81897],[33.530518,44.798767],[33.527679,44.793182],[33.52417,44.789673],[33.516266,44.785095],[33.525146,44.7724],[33.530426,44.757294],[33.536774,44.729797],[33.546722,44.709534],[33.54834,44.698669],[33.544189,44.682678],[33.535645,44.67218],[33.52359,44.661438],[33.514801,44.649109],[33.516266,44.634247],[33.525146,44.628845],[33.55777,44.624329],[33.571533,44.620544],[33.551117,44.614624],[33.5,44.613892],[33.485504,44.610321],[33.477386,44.606628],[33.466461,44.605774],[33.444977,44.606903],[33.435883,44.605286],[33.413818,44.593323],[33.405426,44.59021],[33.375,44.585388],[33.371094,44.58844],[33.371338,44.587952],[33.372314,44.576477],[33.379639,44.564514],[33.487152,44.510315],[33.499512,44.500793],[33.517578,44.49054],[33.539063,44.491577],[33.560394,44.496277],[33.578369,44.49704],[33.589996,44.490051],[33.620117,44.462219],[33.626129,44.453003],[33.631683,44.434296],[33.645355,44.42511],[33.720947,44.399628],[33.741211,44.395874],[33.807617,44.394653],[33.818604,44.395966],[33.8396,44.401184],[33.852051,44.401489],[33.914886,44.383759],[33.937744,44.381042],[33.957855,44.382996],[34.065765,44.419617],[34.088715,44.421997],[34.102539,44.42511],[34.136475,44.441956],[34.147461,44.44989],[34.160797,44.466431],[34.170074,44.481628],[34.182465,44.492798],[34.229828,44.499878],[34.24292,44.507446],[34.263519,44.53186],[34.266113,44.535828],[34.265778,44.53894],[34.266113,44.541931],[34.270996,44.545471],[34.275391,44.546356],[34.286133,44.54538],[34.300293,44.545593],[34.322754,44.543518],[34.331299,44.545471],[34.341156,44.558472],[34.380219,44.631317],[34.414307,44.673767],[34.423981,44.682678],[34.429352,44.689636],[34.468994,44.729797],[34.473297,44.730286],[34.474365,44.728882],[34.474365,44.726379],[34.47525,44.723602],[34.5,44.742615],[34.533203,44.752899],[34.613037,44.765198],[34.650635,44.777283],[34.720947,44.810974],[34.756989,44.820496],[34.826508,44.811829],[34.842621,44.816711],[34.857178,44.8237],[34.889893,44.818085],[34.907867,44.820496],[34.916016,44.825317],[34.922607,44.830872],[34.930176,44.836121],[34.942047,44.840271],[34.952484,44.841522],[34.985992,44.840271],[35.005707,44.835175],[35.017822,44.823181],[35.027008,44.809387],[35.037598,44.798767],[35.080811,44.793762],[35.108398,44.824921],[35.12973,44.868591],[35.154297,44.901093],[35.171875,44.907166],[35.215088,44.914368],[35.233154,44.925659],[35.256012,44.958679],[35.273193,44.96698],[35.298187,44.95636],[35.304932,44.960907],[35.315277,44.966034],[35.319336,44.970032],[35.367188,44.943329],[35.360596,44.973572],[35.362152,44.986542],[35.374023,44.997986],[35.389404,45.001923],[35.422119,45.000427],[35.435394,45.004822],[35.435394,45.010956],[35.406494,45.020081],[35.400635,45.024628],[35.397308,45.035034],[35.400391,45.042847],[35.405518,45.050964],[35.408051,45.062469],[35.416748,45.070862],[35.469574,45.101013],[35.506195,45.113495],[35.547363,45.11969],[35.590576,45.119843],[35.634033,45.114685],[35.70639,45.094666],[35.771149,45.065613],[35.783203,45.057495],[35.812988,45.031616],[35.819,45.021545],[35.827789,44.999207],[35.847992,44.992401],[35.91684,45.001404],[35.993408,44.997986],[36.008453,45.009735],[36.025391,45.032898],[36.047852,45.048767],[36.079102,45.03894],[36.079102,45.046356],[36.135986,45.021423],[36.224609,45.007507],[36.244293,45.010956],[36.248199,45.016083],[36.253906,45.033173],[36.257813,45.03894],[36.267731,45.043671],[36.278473,45.045837],[36.367828,45.048767],[36.440094,45.067444],[36.453369,45.076477],[36.455322,45.091614],[36.44223,45.106506],[36.414795,45.128357],[36.408844,45.149475],[36.409424,45.171112],[36.417969,45.229919],[36.426025,45.251526],[36.437256,45.272034],[36.450348,45.285339],[36.45932,45.28772],[36.482086,45.288788],[36.49057,45.292175],[36.497223,45.30072],[36.494385,45.305237],[36.487946,45.309296],[36.484375,45.316376],[36.489258,45.336304],[36.502441,45.346863],[36.52182,45.349915],[36.545166,45.347382],[36.57486,45.33606],[36.586182,45.333801],[36.598297,45.33429],[36.630859,45.340546],[36.638336,45.351257],[36.631104,45.374725],[36.613525,45.408875],[36.598785,45.421204],[36.583252,45.427368],[36.56665,45.425171],[36.548584,45.412292],[36.532959,45.408905],[36.515869,45.419739],[36.49057,45.442993],[36.470551,45.44577],[36.411774,45.436218],[36.391357,45.439636],[36.359619,45.454468],[36.340485,45.457245],[36.329742,45.454224],[36.321045,45.448364],[36.311676,45.443481],[36.298828,45.442993],[36.307373,45.460907],[36.299957,45.473328],[36.284027,45.476624],[36.267822,45.467224],[36.252441,45.461487],[36.137451,45.462036],[36.11792,45.457092],[36.096344,45.441956],[36.068848,45.429993],[36.065277,45.425476],[36.051758,45.395203],[36.022308,45.368103],[35.985992,45.362732],[35.946625,45.372131],[35.871094,45.404114],[35.854004,45.414001],[35.846924,45.426239],[35.852203,45.444153],[35.860016,45.459534],[35.857666,45.469421],[35.833252,45.470886],[35.817139,45.46405],[35.803955,45.449158],[35.794922,45.430542],[35.791748,45.412292],[35.788422,45.40744],[35.772705,45.392273],[35.767426,45.388977],[35.75293,45.386414],[35.748535,45.3797],[35.747406,45.370728],[35.743317,45.361053],[35.715973,45.340546],[35.694977,45.330383],[35.517822,45.295471],[35.480713,45.297791],[35.332184,45.371216],[35.044434,45.670044],[34.977551,45.762853],[34.95816,45.78952],[34.905029,45.888611],[34.895172,45.901001],[34.883453,45.912811],[34.874359,45.926086],[34.838531,46.047546],[34.828949,46.063416],[34.824219,46.077942],[34.819092,46.141907],[34.813232,46.158264],[34.811279,46.166229],[34.812256,46.176636],[34.817627,46.186218],[34.835114,46.203186],[34.838867,46.207642],[34.882172,46.221741],[34.885406,46.231384],[34.886566,46.242737],[34.893555,46.25177],[34.904785,46.255676],[34.907227,46.251648],[34.908051,46.244263],[34.914063,46.238098],[34.926514,46.235046],[34.936035,46.235413],[35.030762,46.25177],[35.075043,46.271057],[35.105042,46.295044],[35.105072,46.295044],[35.108398,46.297729],[35.167816,46.361023],[35.201508,46.385315],[35.209473,46.396423],[35.213715,46.411804],[35.210693,46.420135],[35.205078,46.427551],[35.201996,46.440491],[35.192047,46.455048],[35.173981,46.473328],[35.166656,46.493134],[35.188324,46.512421],[35.191406,46.494263],[35.20166,46.476288],[35.2146,46.462616],[35.230316,46.455505],[35.243164,46.44696],[35.250488,46.443542],[35.260895,46.441589],[35.2771,46.440735],[35.284515,46.437378],[35.264496,46.39978],[35.258545,46.373352],[35.267578,46.351044],[35.291748,46.336395],[35.311523,46.337616],[35.328857,46.348022],[35.346039,46.361023],[35.342133,46.335754],[35.327789,46.319214],[35.291351,46.293335],[35.264771,46.260498],[35.264832,46.260468],[35.267578,46.259735],[35.27951,46.255127],[35.279541,46.255127],[35.284515,46.259216],[35.380127,46.368469],[35.39502,46.378601],[35.430023,46.395569],[35.445465,46.405975],[35.475739,46.435669],[35.491455,46.447968],[35.510498,46.457214],[35.628662,46.498474],[35.661285,46.519257],[35.741943,46.584412],[35.771149,46.601257],[35.827148,46.623352],[35.901611,46.65271],[35.925537,46.652283],[36.062012,46.670105],[36.13443,46.662659],[36.171722,46.668579],[36.189453,46.669006],[36.209961,46.662659],[36.216644,46.658661],[36.221832,46.654022],[36.230621,46.642151],[36.23291,46.640686],[36.244293,46.635315],[36.244476,46.630493],[36.243317,46.624084],[36.240723,46.619934],[36.245758,46.610809],[36.246735,46.612732],[36.247894,46.619019],[36.257813,46.621704],[36.267578,46.625549],[36.271149,46.622192],[36.270844,46.607391],[36.27832,46.607391],[36.284332,46.636414],[36.303467,46.659241],[36.371094,46.708435],[36.400146,46.723938],[36.432465,46.734833],[36.482666,46.741669],[36.524078,46.75885],[36.589996,46.75885],[36.597809,46.762146],[36.605957,46.769409],[36.617035,46.776672],[36.633942,46.779968],[36.661621,46.773743],[36.679199,46.77301],[36.696045,46.779968],[36.710114,46.772766],[36.742828,46.764709],[36.758057,46.75885],[36.794281,46.729187],[36.80249,46.724731],[36.802246,46.707001],[36.790283,46.671265],[36.771637,46.643433],[36.751221,46.649597],[36.743805,46.649597],[36.743805,46.642151],[36.769287,46.63739],[36.793701,46.653625],[36.812256,46.680542],[36.81958,46.707642],[36.82959,46.731873],[36.849121,46.754456],[36.862457,46.776917],[36.853668,46.800476],[36.88623,46.804016],[36.938812,46.839478],[36.973785,46.848267],[36.984863,46.852478],[37.017731,46.871277],[37.028809,46.875549],[37.03775,46.876648],[37.046539,46.877747],[37.162262,46.909058],[37.20816,46.933563],[37.227051,46.936981],[37.260742,46.932678],[37.29541,46.920227],[37.317383,46.900818],[37.312988,46.875549],[37.335205,46.882446],[37.351715,46.898743],[37.37793,46.933899],[37.48291,47.03595],[37.546387,47.081604],[37.580719,47.090393],[37.710297,47.074158],[37.753265,47.075256],[37.861084,47.101501],[37.950439,47.091248],[37.962067,47.095917],[37.98764,47.091919],[38.026215,47.081604],[38.035156,47.08429],[38.061035,47.09494],[38.066559,47.098083],[38.071533,47.099792],[38.10434,47.081604],[38.130035,47.074646],[38.130371,47.058411],[38.108063,47.026337],[38.142242,47.037659],[38.196289,47.089478],[38.216461,47.103088],[38.216644,47.103241],[38.201416,47.130737],[38.19696,47.162384],[38.203461,47.192291],[38.222504,47.21521],[38.241302,47.223938],[38.263947,47.231506],[38.284698,47.241119],[38.298157,47.256012],[38.300934,47.276001],[38.29184,47.287018],[38.275726,47.291809],[38.257629,47.292725],[38.220306,47.288788],[38.200989,47.290619],[38.18869,47.300964],[38.190552,47.316895],[38.203369,47.334625],[38.233337,47.362396],[38.257935,47.393219],[38.263611,47.421692],[38.260315,47.49292],[38.274384,47.527832],[38.293396,47.562775],[38.319031,47.591278],[38.352905,47.607086],[38.562195,47.626617],[38.587646,47.634277],[38.606354,47.64505],[38.643341,47.673523],[38.66214,47.683289],[38.677856,47.68515],[38.713013,47.67572],[38.734497,47.677124],[38.745148,47.693085],[38.753296,47.735138],[38.770996,47.780823],[38.796204,47.819916],[38.830933,47.848236],[38.877228,47.861237],[39.036163,47.856995],[39.039093,47.856903],[39.092926,47.832092],[39.113495,47.828552],[39.13324,47.829529],[39.173553,47.837036],[39.319672,47.846008],[39.340057,47.843536],[39.373535,47.828278],[39.391602,47.822601],[39.41394,47.823151],[39.457031,47.831268],[39.479889,47.826111],[39.509338,47.822754],[39.570007,47.830902],[39.600586,47.829468],[39.700745,47.811523],[39.733826,47.815979],[39.759033,47.832947],[39.775574,47.858002],[39.782898,47.886536],[39.782074,47.892883],[39.777527,47.906586],[39.777008,47.913727],[39.779816,47.922455],[39.790466,47.937744],[39.793976,47.945679],[39.796143,47.961334],[39.794373,47.971283],[39.780212,47.993134],[39.770081,48.004089],[39.761932,48.009766],[39.759857,48.014923],[39.768127,48.024323],[39.778778,48.029205],[39.833557,48.036163],[39.840271,48.034973],[39.842957,48.036377],[39.844299,48.045654],[39.82901,48.076782],[39.831177,48.099976],[39.843048,48.119751],[39.893707,48.182953],[39.912628,48.197662],[39.96048,48.222046],[39.977631,48.235443],[39.990662,48.253723],[39.993225,48.273224],[39.978882,48.29007],[39.957367,48.293365],[39.905182,48.28064],[39.884827,48.278992],[39.815887,48.308136],[39.884094,48.346344],[39.901459,48.361176],[39.924103,48.376099],[39.91449,48.384674],[39.90683,48.398315],[39.896179,48.423889],[39.864777,48.469818],[39.85434,48.475433],[39.844727,48.48349],[39.842133,48.499054],[39.84668,48.499817],[39.855988,48.499359],[39.865387,48.501465],[39.869507,48.509888],[39.8685,48.512878],[39.866119,48.517029],[39.863831,48.522736],[39.862701,48.53006],[39.855042,48.556091],[39.835297,48.573456],[39.809174,48.58374],[39.690094,48.593658],[39.670258,48.588379],[39.631714,48.586884],[39.641846,48.611694],[39.702911,48.746582],[39.711395,48.754791],[39.736298,48.761505],[39.744476,48.770508],[39.75119,48.78186],[39.759338,48.792816],[39.779388,48.807709],[39.801208,48.81488],[39.824158,48.815613],[39.934937,48.786682],[39.97525,48.789673],[40.019592,48.813141],[40.038696,48.829987],[40.052765,48.849731],[40.053802,48.869202],[40.034271,48.88559],[40.00885,48.887817],[39.989929,48.875671],[39.97226,48.860321],[39.950348,48.852753],[39.937622,48.856232],[39.91861,48.872467],[39.908173,48.878387],[39.896484,48.879883],[39.861877,48.876434],[39.782288,48.888428],[39.758728,48.895386],[39.747345,48.905334],[39.73941,48.918976],[39.725952,48.937012],[39.707764,48.948792],[39.687531,48.957581],[39.673981,48.970123],[39.681122,49.020294],[39.698273,49.028351],[39.748901,49.026184],[39.831482,49.045258],[39.861969,49.045105],[39.891327,49.041748],[39.907257,49.042572],[39.918701,49.047791],[39.92337,49.057983],[39.926056,49.086487],[39.930908,49.100555],[39.952087,49.124542],[39.979584,49.141846],[40.038391,49.168518],[40.057739,49.18277],[40.090912,49.217255],[40.110229,49.227631],[40.134003,49.236267],[40.141663,49.245758],[40.14267,49.281891],[40.157166,49.315826],[40.159515,49.333557],[40.148041,49.349579],[40.101349,49.385437],[40.061951,49.425812],[40.040894,49.455475],[40.034882,49.48703],[40.054321,49.519745],[40.071991,49.53067],[40.110657,49.545319],[40.126038,49.559082],[40.130707,49.579803],[40.1185,49.58844],[40.115509,49.590546],[40.017731,49.607849],[39.998077,49.608215],[39.973999,49.602539],[39.914673,49.562958],[39.889374,49.553253],[39.859406,49.545532],[39.828705,49.541443],[39.801514,49.542175],[39.781036,49.54837],[39.729156,49.58078],[39.68866,49.593445],[39.65332,49.599792],[39.622925,49.613434],[39.597382,49.647949],[39.581573,49.690704],[39.570404,49.713287],[39.557495,49.723969],[39.499115,49.728119],[39.479889,49.733582],[39.443604,49.749512],[39.405975,49.744232],[39.367218,49.731842],[39.327637,49.726318],[39.289917,49.732056],[39.260864,49.744507],[39.238037,49.765106],[39.182739,49.85849],[39.181,49.859467],[39.155762,49.873596],[39.117096,49.86438],[39.099854,49.851624],[39.068329,49.821075],[39.049103,49.810547],[39.032257,49.807343],[38.937378,49.803467],[38.910522,49.820557],[38.886322,49.845154],[38.852203,49.865784],[38.747833,49.885406],[38.687256,49.913788],[38.680969,49.918274],[38.675598,49.927002],[38.672791,49.942993],[38.664337,49.962677],[38.664642,49.965149],[38.66214,49.962555],[38.637756,49.957184],[38.628876,49.953308],[38.619476,49.950745],[38.57016,49.956635],[38.497498,49.948151],[38.461121,49.956879],[38.437775,49.967285],[38.420105,49.971771],[38.376282,49.974915],[38.356018,49.98056],[38.344147,49.992065],[38.314056,50.0495],[38.299896,50.060486],[38.281189,50.062408],[38.253815,50.059052],[38.189819,50.062775],[38.17392,50.06012],[38.164093,50.030365],[38.171326,49.98407],[38.166168,49.940552],[38.119019,49.919159],[38.108398,49.920654],[38.090302,49.928406],[38.079132,49.929901],[38.066528,49.927216],[38.022919,49.909119],[38.000397,49.89978],[37.99585,49.905884],[37.995331,49.921326],[37.980011,49.939575],[37.979004,49.941437],[37.946533,49.97818],[37.915833,50.003296],[37.881744,50.023041],[37.842773,50.039093],[37.763397,50.062561],[37.727631,50.078674],[37.631836,50.174072],[37.597107,50.19693],[37.590271,50.203796],[37.588623,50.2146],[37.591522,50.225281],[37.601532,50.249023],[37.599182,50.290863],[37.568176,50.312531],[37.480011,50.340027],[37.463776,50.366516],[37.450226,50.398987],[37.435242,50.424927],[37.415192,50.431854],[37.314728,50.422943],[37.285187,50.415253],[37.226685,50.377075],[37.197021,50.362396],[37.051697,50.335297],[36.980072,50.342133],[36.914032,50.339081],[36.848633,50.323669],[36.682648,50.260651],[36.66983,50.252991],[36.6604,50.243835],[36.644379,50.222229],[36.635803,50.21402],[36.616913,50.20639],[36.59436,50.204407],[36.571014,50.206909],[36.54953,50.212158],[36.534637,50.21991],[36.531647,50.228821],[36.533905,50.238678],[36.536072,50.260895],[36.538879,50.265045],[36.536377,50.267517],[36.521088,50.274078],[36.512115,50.276398],[36.480164,50.280853],[36.452667,50.293549],[36.430542,50.296875],[36.410004,50.304565],[36.400177,50.306641],[36.38797,50.306427],[36.380951,50.304047],[36.36142,50.291656],[36.339508,50.281464],[36.315826,50.274841],[36.291962,50.274017],[36.269012,50.281372],[36.169281,50.383667],[36.140747,50.392944],[36.133209,50.411591],[36.105835,50.421082],[35.931885,50.430145],[35.837402,50.423218],[35.819336,50.419037],[35.805389,50.41214],[35.785522,50.39447],[35.774384,50.386871],[35.765381,50.384521],[35.746155,50.383942],[35.737671,50.381561],[35.721252,50.368683],[35.710297,50.355621],[35.696869,50.345123],[35.6922,50.344147],[35.673187,50.340179],[35.6521,50.341095],[35.631531,50.344971],[35.611389,50.351685],[35.592163,50.360474],[35.570129,50.376434],[35.563843,50.391785],[35.562286,50.409607],[35.554626,50.433228],[35.540802,50.450043],[35.522705,50.459503],[35.501923,50.464294],[35.480133,50.466888],[35.446442,50.476013],[35.425232,50.500458],[35.377716,50.621796],[35.37616,50.634583],[35.391541,50.646362],[35.468872,50.668518],[35.445404,50.6875],[35.443756,50.709442],[35.447052,50.734314],[35.438477,50.76236],[35.429382,50.772125],[35.418213,50.7789],[35.393097,50.788361],[35.379059,50.79718],[35.37738,50.807526],[35.379669,50.81958],[35.377716,50.83374],[35.369019,50.846039],[35.348541,50.86377],[35.341431,50.876465],[35.340393,50.891815],[35.342987,50.904114],[35.341736,50.915833],[35.329132,50.929077],[35.317139,50.934204],[35.293579,50.937592],[35.28479,50.944305],[35.282196,50.954254],[35.282196,50.981537],[35.278076,50.992645],[35.33255,50.999908],[35.34671,51.00824],[35.355072,51.025574],[35.346375,51.036591],[35.3284,51.043152],[35.308655,51.047302],[35.274231,51.048767],[35.206451,51.03891],[35.172546,51.040619],[35.143616,51.058472],[35.123749,51.091309],[35.099152,51.183167],[35.091309,51.197662],[35.078705,51.207611],[35.059387,51.212311],[35.038696,51.210144],[35.018768,51.204529],[34.99942,51.202087],[34.980316,51.209534],[34.961823,51.215302],[34.946106,51.214264],[34.899597,51.196442],[34.817535,51.174713],[34.748077,51.164703],[34.674896,51.167664],[34.65744,51.171631],[34.642761,51.180603],[34.633148,51.195587],[34.62851,51.21106],[34.622406,51.224731],[34.608337,51.233978],[34.578156,51.236664],[34.513458,51.229553],[34.480377,51.236969],[34.408966,51.253113],[34.371765,51.256836],[34.336945,51.251129],[34.29953,51.231628],[34.281738,51.22641],[34.257874,51.229553],[34.185944,51.248901],[34.243927,51.274078],[34.2836,51.301208],[34.308716,51.334595],[34.30014,51.368378],[34.280304,51.361237],[34.264374,51.361206],[34.247345,51.363403],[34.230499,51.367645],[34.215698,51.373749],[34.195953,51.38562],[34.185822,51.394135],[34.181915,51.402313],[34.186981,51.408295],[34.208771,51.411438],[34.217041,51.417053],[34.219635,51.427246],[34.217041,51.436035],[34.213226,51.444794],[34.212097,51.455017],[34.214996,51.464661],[34.223755,51.482361],[34.225922,51.492859],[34.223663,51.51474],[34.215393,51.531982],[34.202362,51.546143],[34.160309,51.576111],[34.152985,51.583954],[34.148834,51.593201],[34.144501,51.61377],[34.140045,51.621185],[34.126007,51.626984],[34.090637,51.633179],[34.079498,51.643097],[34.089111,51.666595],[34.12796,51.680725],[34.298187,51.706146],[34.356873,51.705536],[34.376312,51.708588],[34.414154,51.73645],[34.412689,51.777679],[34.385712,51.817657],[34.371094,51.826782],[34.34726,51.841675],[34.327728,51.850494],[34.294556,51.873871],[34.276672,51.881226],[34.264893,51.881195],[34.246002,51.875458],[34.234192,51.878265],[34.234619,51.880707],[34.230988,51.894531],[34.228424,51.899261],[34.222626,51.903137],[34.209412,51.908783],[34.2034,51.912292],[34.166412,51.94223],[34.146149,51.951599],[34.096222,51.951813],[34.096649,51.960571],[34.104401,51.975281],[34.101074,51.992493],[34.080322,52.013611],[34.068207,52.031006],[34.062531,52.050201],[34.060059,52.08316],[34.056641,52.100372],[34.056641,52.105804],[34.073914,52.128296],[34.073608,52.139557],[34.071014,52.148956],[34.065338,52.1586],[34.055725,52.170319],[34.038879,52.186462],[34.021912,52.197876],[33.957733,52.22467],[33.944397,52.235779],[33.919495,52.269745],[33.900696,52.285828],[33.858734,52.302155],[33.839081,52.313904],[33.823364,52.331451],[33.815216,52.345062],[33.804047,52.354584],[33.778931,52.360046],[33.733551,52.360962],[33.687927,52.355804],[33.600189,52.33078],[33.531677,52.288818],[33.510071,52.287506],[33.493011,52.303131],[33.49942,52.340973],[33.480499,52.357758],[33.465302,52.352722],[33.451782,52.345245],[33.437317,52.339142],[33.419312,52.338318],[33.403656,52.342926],[33.400574,52.34433],[33.37616,52.355225],[33.358948,52.357544],[33.294312,52.357269],[33.196503,52.368927],[33.182861,52.367279],[33.166626,52.360046],[33.140839,52.340363],[33.12796,52.332703],[33.108856,52.328308],[33.09903,52.324738],[33.087341,52.31076],[33.07959,52.305573],[33.070404,52.304169],[33.057281,52.308624],[33.048218,52.309082],[33.03009,52.303589],[32.926849,52.246887],[32.908966,52.241089],[32.890778,52.24231],[32.860992,52.257172],[32.844147,52.262329],[32.814819,52.261993],[32.755585,52.25238],[32.725403,52.252075],[32.528412,52.316193],[32.48056,52.307129],[32.394257,52.326782],[32.353546,52.321564],[32.339478,52.287231],[32.344452,52.27652],[32.363251,52.255707],[32.366974,52.247192],[32.361298,52.235901],[32.350128,52.229858],[32.33783,52.225464],[32.328217,52.219147],[32.318817,52.201385],[32.306732,52.141174],[32.277679,52.102631],[32.233307,52.080841],[32.095581,52.04071],[32.077118,52.039948],[32.016937,52.049774],[31.980545,52.047607],[31.927216,52.031067],[31.91037,52.029053],[31.892029,52.036163],[31.887741,52.051544],[31.887482,52.070007],[31.88205,52.086395],[31.858704,52.099854],[31.825836,52.104034],[31.764343,52.100555],[31.649933,52.096832],[31.474854,52.117767],[31.383072,52.117462],[31.304413,52.097473],[31.284256,52.081238],[31.26886,52.061218],[31.252426,52.044495],[31.228973,52.038208],[31.204895,52.043915],[31.15921,52.068085],[31.134811,52.07666],[31.096313,52.07959],[30.95932,52.074677],[30.934418,52.069702],[30.918808,52.059174],[30.924698,52.042267],[30.919739,52.037262],[30.91684,52.032349],[30.914627,52.027557],[30.91127,52.022552],[30.940506,52.020081],[30.950119,52.006775],[30.941238,51.993774],[30.915192,51.992584],[30.908371,51.998322],[30.902786,51.999969],[30.896896,51.998322],[30.888733,51.994324],[30.880875,51.988159],[30.879013,51.981995],[30.879639,51.976868],[30.879333,51.973633],[30.869095,51.964996],[30.858032,51.957611],[30.845627,51.951324],[30.831375,51.945892],[30.803055,51.939117],[30.802536,51.935516],[30.805222,51.929321],[30.810593,51.925171],[30.810593,51.918365],[30.797058,51.906708],[30.788162,51.900604],[30.779495,51.897888],[30.749725,51.899597],[30.741653,51.897888],[30.737839,51.891571],[30.737213,51.882233],[30.734528,51.873718],[30.713959,51.866943],[30.70755,51.860352],[30.702805,51.85376],[30.697327,51.850708],[30.694534,51.84726],[30.672729,51.82959],[30.666321,51.822388],[30.661972,51.819397],[30.662292,51.815582],[30.669617,51.806061],[30.670547,51.790527],[30.652771,51.779114],[30.630447,51.769989],[30.618149,51.761322],[30.638107,51.755096],[30.646164,51.754517],[30.646164,51.74707],[30.635056,51.739685],[30.632004,51.727966],[30.630554,51.715576],[30.624969,51.706085],[30.613815,51.702911],[30.582809,51.702271],[30.570297,51.69989],[30.575989,51.686401],[30.564301,51.665283],[30.570297,51.651489],[30.563477,51.647308],[30.555313,51.63974],[30.549942,51.637177],[30.552841,51.633331],[30.55661,51.623596],[30.543839,51.620117],[30.515106,51.603668],[30.515106,51.596252],[30.534546,51.585815],[30.543121,51.582581],[30.543121,51.576385],[30.535263,51.575012],[30.531082,51.573303],[30.527725,51.571289],[30.522552,51.568909],[30.522552,51.562714],[30.534134,51.553253],[30.567413,51.547241],[30.584,51.542236],[30.576401,51.531097],[30.571442,51.526398],[30.562866,51.521759],[30.575058,51.516052],[30.585388,51.509369],[30.589737,51.501953],[30.584,51.493805],[30.588898,51.481812],[30.597275,51.474274],[30.607605,51.469818],[30.618149,51.467133],[30.618149,51.459625],[30.604828,51.461212],[30.593552,51.458893],[30.586014,51.451843],[30.584,51.439209],[30.587875,51.427338],[30.595566,51.424927],[30.606003,51.424561],[30.618149,51.418701],[30.622604,51.412079],[30.632416,51.383942],[30.637482,51.378571],[30.644516,51.37265],[30.645538,51.367432],[30.632416,51.364075],[30.638306,51.335846],[30.610458,51.317535],[30.57991,51.30365],[30.577225,51.289001],[30.559341,51.269318],[30.55661,51.267303],[30.555313,51.243439],[30.554642,51.242493],[30.550659,51.236786],[30.539612,51.235138],[30.532013,51.244598],[30.520798,51.25238],[30.508087,51.25766],[30.494644,51.259918],[30.480698,51.25885],[30.465042,51.261932],[30.442764,51.28302],[30.428085,51.291748],[30.413513,51.294037],[30.383743,51.293915],[30.368454,51.297668],[30.355118,51.305267],[30.324524,51.329956],[30.317093,51.340576],[30.319885,51.341583],[30.328247,51.362457],[30.330002,51.370331],[30.330109,51.380707],[30.329025,51.388611],[30.326187,51.395233],[30.32019,51.402069],[30.307373,51.409576],[30.256882,51.425049],[30.242783,51.434387],[30.205368,51.466492],[30.177307,51.479492],[30.148621,51.484406],[30.008682,51.482056],[29.985733,51.477844],[29.925064,51.457855],[29.912567,51.457428],[29.896545,51.464172],[29.886261,51.464783],[29.873596,51.459167],[29.85675,51.43985],[29.846619,51.432892],[29.828644,51.429962],[29.7379,51.439484],[29.725296,51.450439],[29.716507,51.465668],[29.699966,51.483704],[29.682709,51.49118],[29.660797,51.493134],[29.637756,51.490875],[29.618011,51.485626],[29.597336,51.473938],[29.583176,51.460785],[29.568192,51.449615],[29.545044,51.443634],[29.518997,51.441772],[29.505463,51.437439],[29.495529,51.425629],[29.480865,51.401245],[29.466293,51.38504],[29.446396,51.384888],[29.402725,51.396118],[29.379669,51.391541],[29.353256,51.377045],[29.340561,51.370087],[29.319946,51.36557],[29.296997,51.373688],[29.284592,51.391724],[29.276123,51.413574],[29.264847,51.432892],[29.244385,51.447876],[29.227753,51.455597],[29.221024,51.466949],[29.230438,51.492859],[29.226501,51.519043],[29.214828,51.535431],[29.181442,51.566986],[29.160416,51.603302],[29.147964,51.615631],[29.123871,51.625031],[29.083679,51.631195],[29.063217,51.630585],[29.043579,51.62616],[29.023621,51.614014],[28.999954,51.582397],[28.980835,51.569458],[28.95459,51.563232],[28.892883,51.562866],[28.863632,51.558899],[28.831909,51.548248],[28.799866,51.532593],[28.771866,51.511261],[28.752228,51.483704],[28.749435,51.466858],[28.751602,51.428741],[28.74675,51.413971],[28.72876,51.401245],[28.718216,51.411591],[28.71109,51.430237],[28.703949,51.442596],[28.691147,51.44342],[28.677917,51.438049],[28.663544,51.43399],[28.647003,51.438995],[28.637299,51.449615],[28.63089,51.463623],[28.615173,51.519562],[28.612701,51.539917],[28.603912,51.553528],[28.578079,51.560089],[28.488358,51.571991],[28.461227,51.571655],[28.435349,51.566101],[28.385529,51.545044],[28.359634,51.529358],[28.346878,51.525146],[28.333847,51.528351],[28.328171,51.536346],[28.317413,51.563934],[28.310898,51.574432],[28.298508,51.582947],[28.269714,51.594238],[28.257782,51.601746],[28.249359,51.613068],[28.248383,51.62207],[28.248886,51.630585],[28.245117,51.640594],[28.230392,51.651123],[28.210037,51.651947],[28.187607,51.645172],[28.166214,51.633087],[28.146683,51.61438],[28.114227,51.575592],[28.090149,51.562042],[28.070816,51.557617],[27.973145,51.5578],[27.954758,51.56076],[27.93605,51.566986],[27.87558,51.608032],[27.854187,51.615326],[27.831238,51.612915],[27.812531,51.60199],[27.799515,51.585175],[27.793213,51.565002],[27.793732,51.552277],[27.796265,51.541504],[27.797134,51.530579],[27.792542,51.517273],[27.787323,51.510895],[27.740555,51.471405],[27.730118,51.465149],[27.714249,51.463684],[27.700043,51.467529],[27.683762,51.475494],[27.670319,51.484802],[27.666168,51.490173],[27.664124,51.492828],[27.697296,51.543182],[27.705154,51.568329],[27.692642,51.589203],[27.676834,51.594788],[27.620605,51.595886],[27.512421,51.623077],[27.512299,51.623108],[27.477264,51.623657],[27.458755,51.617493],[27.430954,51.598419],[27.408997,51.591705],[27.388382,51.590698],[27.329056,51.596954],[27.289261,51.588959],[27.267456,51.587494],[27.254013,51.595367],[27.259705,51.612274],[27.274475,51.633789],[27.277481,51.651123],[27.247925,51.65564],[27.223633,51.653687],[27.203583,51.655121],[27.189011,51.663757],[27.181046,51.68338],[27.181458,51.710114],[27.184158,51.731415],[27.177841,51.74707],[27.151077,51.756744],[27.10994,51.762421],[27.021576,51.764526],[26.920807,51.742523],[26.854767,51.749329],[26.665741,51.801361],[26.445587,51.805573],[26.431534,51.810211],[26.419235,51.820892],[26.416962,51.830627],[26.419968,51.839722],[26.419754,51.846832],[26.407761,51.850586],[26.175323,51.856689],[26.145355,51.864838],[26.08075,51.900635],[26.050583,51.904816],[25.981125,51.903473],[25.767914,51.928497],[25.683472,51.917999],[25.547394,51.919434],[25.351959,51.921478],[25.183289,51.949738],[25.138031,51.948944],[25.092651,51.939728],[25.002731,51.910461],[24.721817,51.882324],[24.70105,51.882904],[24.639755,51.89212],[24.390778,51.880005],[24.369598,51.875092],[24.347885,51.861145],[24.311508,51.827545],[24.296112,51.808105],[24.272339,51.742859],[24.244125,51.718201],[24.130753,51.669769],[23.981293,51.585999],[23.941299,51.581909],[23.912872,51.598572],[23.884872,51.619873],[23.845291,51.629791],[23.820282,51.631256],[23.74968,51.64447],[23.726227,51.644836],[23.628967,51.629028],[23.616669,51.624756],[23.60643,51.618103],[23.594345,51.60495],[23.593307,51.596954],[23.599106,51.588959],[23.626282,51.540863],[23.628662,51.531219],[23.624115,51.5159],[23.615433,51.513092],[23.606232,51.517395],[23.608093,51.5112],[23.614807,51.497192],[23.630524,51.490417],[23.648605,51.486206],[23.662766,51.480164],[23.647156,51.460175],[23.648712,51.453949],[23.689423,51.416412],[23.697601,51.404419],[23.68602,51.401031],[23.678894,51.394043],[23.677643,51.383789],[23.683853,51.37027],[23.665558,51.365784],[23.647781,51.353973],[23.634033,51.339294],[23.628662,51.325958],[23.635162,51.304688],[23.650879,51.299591],[23.670212,51.299347],[23.687256,51.292389],[23.742661,51.216248],[23.765182,51.199005],[23.81604,51.178772],[23.863586,51.148254],[23.874741,51.136108],[23.8582,51.130707],[23.854477,51.121521],[23.869263,51.101715],[23.895508,51.07608],[23.90419,51.062714],[23.915985,51.020844],[23.915985,51.014648],[23.911743,51.006805],[23.919083,51.002716],[23.931793,50.999451],[23.943985,50.994171],[23.955048,50.983551],[23.95784,50.975311],[23.958878,50.966339],[23.964355,50.953217],[23.97934,50.9375],[24.046921,50.89801],[24.130234,50.868927],[24.143143,50.856415],[24.130844,50.83905],[24.100464,50.834961],[24.067291,50.834808],[24.046921,50.829071],[24.020462,50.838531],[23.992874,50.836212],[23.969925,50.825165],[23.957626,50.807983],[23.959488,50.788879],[23.974274,50.776154],[23.99794,50.769196],[24.025848,50.767029],[24.025848,50.760803],[24.012817,50.743286],[24.026871,50.727997],[24.054169,50.717163],[24.081039,50.712952],[24.074936,50.690186],[24.082794,50.669128],[24.108154,50.63028],[24.108429,50.629852],[24.085266,50.604401],[24.095398,50.556854],[24.102524,50.54361],[24.107697,50.540833],[24.106461,50.538605],[24.093948,50.52713],[24.075043,50.514252],[24.010651,50.492767],[24.007858,50.480743],[24.009415,50.461456],[24.007751,50.448486],[24.003204,50.437683],[23.981293,50.404755],[23.928696,50.390808],[23.747513,50.389374],[23.712997,50.382385],[23.69574,50.37677],[23.68219,50.368225],[23.671234,50.353546],[23.658676,50.326996],[23.658005,50.325592],[23.644165,50.312683],[23.565308,50.257782],[23.536362,50.242798],[23.536255,50.242798],[23.536163,50.242767],[23.536057,50.242767],[23.481583,50.215942],[23.436417,50.193451],[23.207916,50.033936],[23.177826,50.003967],[23.141251,49.985474],[23.101456,49.957092],[22.993042,49.854401],[22.951187,49.826599],[22.945908,49.818329],[22.937744,49.798187],[22.93309,49.791046],[22.924408,49.785431],[22.906738,49.781189],[22.897949,49.777405],[22.888245,49.769714],[22.826645,49.697357],[22.809799,49.68631],[22.798843,49.683258],[22.777344,49.680481],[22.766174,49.674225],[22.758942,49.665588],[22.741684,49.633636],[22.665817,49.567352],[22.640915,49.528748],[22.660141,49.492981],[22.666855,49.478363],[22.673065,49.435822],[22.676773,49.424469],[22.679565,49.418945],[22.692596,49.405487],[22.714188,49.390625],[22.719772,49.382965],[22.724213,49.367035],[22.737762,49.275391],[22.733932,49.260864],[22.717087,49.230408],[22.702927,49.195007],[22.687119,49.17337],[22.681732,49.161224],[22.687836,49.155914],[22.69249,49.157928],[22.705719,49.168823],[22.72142,49.161591],[22.720184,49.161163],[22.71637,49.160553],[22.74881,49.145569],[22.778061,49.1203],[22.796463,49.111359],[22.841309,49.094879],[22.853409,49.084747],[22.853516,49.076263],[22.844421,49.056671],[22.84317,49.043091],[22.847519,49.033691],[22.863739,49.01535],[22.865005,49.013214],[22.866943,49.009979],[22.85527,48.993988],[22.835007,48.999725],[22.812897,49.012848],[22.795013,49.019012],[22.783951,49.021332],[22.765457,49.038391],[22.755325,49.044678],[22.744476,49.045532],[22.721939,49.041016],[22.685776,49.042786],[22.664383,49.041443],[22.642883,49.043152],[22.618286,49.054199],[22.580765,49.081421],[22.560715,49.08551],[22.539627,49.072174],[22.531982,49.055695],[22.52475,49.032867],[22.520096,49.009796],[22.520508,48.99292],[22.505005,48.984222],[22.466553,48.980499],[22.44899,48.971405],[22.427292,48.929443],[22.414886,48.911682],[22.413635,48.906769],[22.413742,48.89386],[22.411789,48.887756],[22.402374,48.878815],[22.378403,48.865417],[22.370789,48.858246],[22.368896,48.856445],[22.362274,48.844238],[22.361557,48.836426],[22.36351,48.828278],[22.365692,48.794373],[22.363419,48.787598],[22.356491,48.776123],[22.347809,48.767853],[22.338394,48.762939],[22.33075,48.756378],[22.327652,48.743011],[22.328888,48.721558],[22.322479,48.700317],[22.310287,48.681671],[22.294266,48.667603],[22.282181,48.662384],[22.255508,48.656769],[22.24321,48.651184],[22.235672,48.644135],[22.225235,48.628204],[22.219025,48.620911],[22.153717,48.585846],[22.138718,48.56958],[22.136658,48.549316],[22.148331,48.50882],[22.144821,48.493103],[22.133759,48.476807],[22.132828,48.404785]]]}}