{"type":"Feature","geometry":{"type":"Polygon","coordinates":[[[31.229385,48.157196],[31.230011,48.154419],[31.229233,48.138611],[31.229538,48.134888],[31.231094,48.131622],[31.233261,48.128998],[31.23558,48.126862],[31.237595,48.125519],[31.24086,48.123871],[31.250305,48.120911],[31.343903,48.111786],[31.351334,48.112518],[31.368546,48.120361],[31.384262,48.124939],[31.388916,48.123779],[31.391861,48.121277],[31.393402,48.117981],[31.396194,48.114624],[31.400375,48.111511],[31.408295,48.108276],[31.41449,48.107697],[31.419296,48.108765],[31.423019,48.110901],[31.43129,48.113373],[31.444153,48.115936],[31.49939,48.119019],[31.503738,48.118073],[31.507294,48.116241],[31.509933,48.113647],[31.51149,48.110443],[31.512573,48.103027],[31.509781,48.082123],[31.508392,48.077942],[31.506531,48.074249],[31.501556,48.068909],[31.500015,48.066742],[31.49971,48.063873],[31.500793,48.060211],[31.506058,48.056366],[31.511795,48.055023],[31.517532,48.054871],[31.522186,48.05603],[31.525436,48.058441],[31.526993,48.062073],[31.527771,48.06604],[31.528381,48.078186],[31.530243,48.082642],[31.533661,48.086761],[31.542084,48.090759],[31.547348,48.09024],[31.551376,48.087921],[31.555099,48.084045],[31.559906,48.082825],[31.565018,48.082672],[31.580521,48.084747],[31.584869,48.086212],[31.58812,48.088226],[31.589203,48.091461],[31.588425,48.102386],[31.589203,48.106201],[31.591278,48.109558],[31.594482,48.111938],[31.599808,48.114166],[31.616547,48.118713],[31.622742,48.118256],[31.627243,48.116638],[31.640259,48.106262],[31.646149,48.103973],[31.655975,48.101349],[31.66745,48.102722],[31.675812,48.101624],[31.6828,48.099609],[31.69194,48.095123],[31.698608,48.09375],[31.704865,48.093323],[31.74408,48.098236],[31.752457,48.097473],[31.758026,48.095398],[31.760254,48.092438],[31.766769,48.075928],[31.770645,48.069885],[31.772186,48.06662],[31.772964,48.063171],[31.773285,48.059265],[31.772507,48.055023],[31.771255,48.050873],[31.769241,48.047028],[31.766464,48.044128],[31.762833,48.04187],[31.7509,48.036377],[31.711212,48.024231],[31.708069,48.02243],[31.708069,48.019745],[31.709503,48.016846],[31.722687,48.000427],[31.723465,47.999786],[31.755402,47.96347],[31.768158,47.952576],[31.779785,47.944855],[31.785065,47.944183],[31.810181,47.947815],[31.816681,47.94696],[31.821228,47.94516],[31.826508,47.940002],[31.830536,47.934021],[31.831467,47.930481],[31.831924,47.926727],[31.833023,47.923309],[31.834717,47.920227],[31.836899,47.917358],[31.839676,47.914673],[31.861237,47.897278],[31.863403,47.894379],[31.865265,47.891266],[31.866196,47.887848],[31.866501,47.884155],[31.866043,47.880371],[31.864182,47.876862],[31.861847,47.873535],[31.844482,47.856354],[31.84201,47.853149],[31.839996,47.849731],[31.839066,47.845947],[31.839844,47.842529],[31.841537,47.839386],[31.849457,47.831146],[31.851624,47.828339],[31.852707,47.824829],[31.852859,47.821045],[31.852402,47.816864],[31.851471,47.812531],[31.851303,47.807678],[31.852402,47.80307],[31.856888,47.797699],[31.86232,47.795837],[31.868057,47.795105],[31.955276,47.795837],[31.960083,47.7966],[31.963806,47.79837],[31.965515,47.801758],[31.966751,47.805542],[31.968307,47.809418],[31.974976,47.811859],[31.98587,47.812927],[32.02182,47.809845],[32.029907,47.807617],[32.040649,47.800537],[32.063904,47.792145],[32.068237,47.789825],[32.071655,47.787445],[32.074432,47.784821],[32.08313,47.773193],[32.086853,47.767151],[32.091644,47.762878],[32.099854,47.758423],[32.119293,47.75119],[32.130005,47.748718],[32.138672,47.747498],[32.149384,47.748657],[32.158417,47.75119],[32.162292,47.753082],[32.169098,47.75769],[32.18042,47.769073],[32.193298,47.786621],[32.215057,47.810699],[32.21814,47.813446],[32.221558,47.815826],[32.225586,47.817688],[32.234436,47.820435],[32.270599,47.824005],[32.287506,47.822449],[32.298676,47.819855],[32.325378,47.808533],[32.342896,47.796173],[32.348022,47.795471],[32.352509,47.796173],[32.364441,47.799713],[32.374512,47.801758],[32.38089,47.801239],[32.386658,47.800079],[32.391327,47.798248],[32.456787,47.782166],[32.467041,47.781067],[32.640045,47.799561],[32.644531,47.800629],[32.647156,47.803223],[32.648254,47.806458],[32.649506,47.822174],[32.649353,47.826019],[32.650269,47.833832],[32.651978,47.837311],[32.655548,47.839325],[32.676208,47.841858],[32.680237,47.843262],[32.682251,47.845856],[32.681946,47.848907],[32.679016,47.851288],[32.675446,47.853577],[32.672333,47.856018],[32.670624,47.859192],[32.670624,47.863068],[32.672028,47.87146],[32.671722,47.875305],[32.670471,47.878662],[32.663513,47.887177],[32.661591,47.890228],[32.660645,47.893555],[32.660858,47.896973],[32.66272,47.900238],[32.665527,47.902893],[32.669403,47.904816],[32.679321,47.906525],[32.706299,47.9086],[32.710785,47.909729],[32.714417,47.911835],[32.715759,47.915192],[32.716248,47.919098],[32.716064,47.926697],[32.714722,47.929718],[32.710938,47.931274],[32.693878,47.93335],[32.689087,47.934814],[32.685669,47.937073],[32.68335,47.939941],[32.681946,47.943207],[32.681335,47.946777],[32.681641,47.950745],[32.682739,47.954834],[32.68457,47.958771],[32.68692,47.962219],[32.689697,47.965271],[32.692657,47.967926],[32.696045,47.970276],[32.703949,47.974152],[32.716675,47.978821],[32.757965,47.983978],[32.777557,47.989319],[32.783142,47.9888],[32.787018,47.987122],[32.789795,47.984406],[32.796936,47.975922],[32.800964,47.972778],[32.806702,47.969635],[32.817871,47.966064],[32.824585,47.965637],[32.829315,47.966675],[32.832184,47.969513],[32.834351,47.973022],[32.838226,47.980835],[32.840546,47.9841],[32.844421,47.986206],[32.87558,47.990662],[32.879303,47.991943],[32.882751,47.993958],[32.884735,47.996552],[32.885559,47.998871],[32.885651,47.999939],[32.885559,48.00061],[32.881927,48.010559],[32.880585,48.017822],[32.881012,48.021698],[32.881927,48.025543],[32.884003,48.028931],[32.888184,48.032135],[32.894073,48.034973],[32.906799,48.037506],[32.917969,48.03717],[32.94281,48.033997],[32.94931,48.034576],[32.970245,48.04425],[32.975677,48.044495],[32.979248,48.042725],[32.98111,48.039795],[32.982666,48.036499],[32.984192,48.029449],[32.985748,48.026245],[32.987762,48.023254],[32.992432,48.017731],[33.011078,48.00296],[33.013245,48.000732],[33.014496,47.999207],[33.015717,47.99649],[33.016052,47.993134],[33.014801,47.980927],[33.015717,47.977448],[33.019287,47.974426],[33.035248,47.966522],[33.046112,47.960175],[33.045349,47.953918],[33.039307,47.944305],[33.031372,47.92569],[33.031708,47.919708],[33.034485,47.915985],[33.039307,47.91452],[33.045013,47.914063],[33.050598,47.914154],[33.055786,47.914825],[33.062286,47.913635],[33.069122,47.91095],[33.079651,47.90152],[33.082764,47.895935],[33.082275,47.891693],[33.079346,47.888916],[33.07608,47.886475],[33.073151,47.882751],[33.070984,47.877411],[33.06958,47.854523],[33.068176,47.850189],[33.066162,47.846619],[33.063843,47.84314],[33.062134,47.837708],[33.06073,47.830872],[33.060272,47.775574],[33.061188,47.768738],[33.064148,47.764313],[33.067719,47.762085],[33.071899,47.760132],[33.076874,47.75592],[33.082123,47.750092],[33.087708,47.737183],[33.086945,47.731689],[33.083374,47.72876],[33.039764,47.726074],[33.002075,47.718933],[32.996033,47.71701],[32.987762,47.713287],[32.983734,47.709991],[32.983734,47.706879],[32.984833,47.703644],[32.990723,47.69458],[33.006744,47.674744],[33.014343,47.662598],[33.01651,47.658173],[33.018524,47.652527],[33.020691,47.642578],[33.020386,47.636414],[33.018372,47.631866],[33.012634,47.62616],[33.000366,47.617676],[32.997894,47.615112],[32.994904,47.610992],[32.991638,47.603241],[32.992096,47.598694],[32.994171,47.595428],[32.997681,47.593628],[33.005188,47.591675],[33.089264,47.582855],[33.087402,47.574188],[33.086792,47.562408],[33.087402,47.554871],[33.088013,47.551361],[33.089264,47.547974],[33.091583,47.545197],[33.094849,47.542725],[33.109741,47.53418],[33.115662,47.529694],[33.117676,47.526917],[33.118622,47.523712],[33.118164,47.519989],[33.116455,47.516571],[33.112244,47.509857],[33.110962,47.506073],[33.111176,47.503082],[33.111633,47.501129],[33.111786,47.500275],[33.112885,47.498169],[33.117981,47.489929],[33.120178,47.487305],[33.123108,47.482788],[33.124207,47.480438],[33.124969,47.477295],[33.125275,47.473755],[33.124969,47.469696],[33.123108,47.461304],[33.120483,47.452942],[33.119995,47.448914],[33.120331,47.44519],[33.121399,47.441711],[33.123108,47.438599],[33.125275,47.43576],[33.128845,47.429596],[33.129944,47.426178],[33.130096,47.422577],[33.128235,47.419006],[33.124054,47.416382],[33.115051,47.41449],[33.095917,47.413422],[33.090179,47.414001],[33.085083,47.415253],[33.081818,47.417542],[33.079956,47.420654],[33.074524,47.433594],[33.064453,47.448853],[33.061829,47.451294],[33.058868,47.452179],[33.055267,47.450623],[33.052765,47.445038],[33.050507,47.436096],[33.047211,47.431274],[33.031372,47.416992],[33.027832,47.41214],[33.026123,47.408722],[33.026733,47.405884],[33.028137,47.402893],[33.029846,47.399841],[33.032166,47.396942],[33.034943,47.394257],[33.038666,47.392029],[33.042694,47.390076],[33.047668,47.38858],[33.053619,47.387573],[33.087402,47.38739],[33.092194,47.386627],[33.096252,47.384888],[33.099335,47.382355],[33.120636,47.349396],[33.12204,47.3461],[33.123871,47.339325],[33.124664,47.33371],[33.124512,47.330933],[33.123871,47.327332],[33.121094,47.319275],[33.111176,47.300415],[33.106201,47.288269],[33.104675,47.279877],[33.104675,47.276001],[33.105072,47.2724],[33.106201,47.268921],[33.107758,47.265717],[33.113495,47.256836],[33.134888,47.230957],[33.136597,47.226868],[33.136139,47.224304],[33.130554,47.216553],[33.12854,47.212189],[33.127289,47.208099],[33.124969,47.204559],[33.120636,47.202423],[33.112732,47.202545],[33.107147,47.203827],[33.094543,47.209045],[33.089569,47.20993],[33.083832,47.208923],[33.077942,47.206238],[33.048645,47.182617],[33.043182,47.180054],[33.035889,47.177917],[33.021301,47.176239],[32.998322,47.176636],[32.995422,47.177521],[32.98468,47.187012],[32.980804,47.187897],[32.976135,47.186768],[32.971191,47.181213],[32.962036,47.164429],[32.93631,47.126862],[32.918427,47.110352],[32.916412,47.107025],[32.915009,47.103516],[32.915314,47.100098],[32.915955,47.097015],[32.917328,47.094055],[32.918732,47.08905],[32.91983,47.080109],[32.921844,47.077332],[32.925232,47.075348],[32.930206,47.074799],[32.945587,47.07605],[32.950867,47.075928],[32.955994,47.074982],[33.01355,47.051056],[33.059357,47.021454],[33.061371,47.018616],[33.061676,47.01532],[33.06012,47.011902],[33.057953,47.008636],[33.049377,46.999756],[33.031555,46.985657],[33.028748,46.982605],[33.027496,46.980591],[33.026276,46.97757],[33.026276,46.974274],[33.026123,46.971619],[33.025024,46.96991],[32.998322,46.981934],[32.991943,46.985809],[32.985901,46.990814],[32.980652,46.996124],[32.976288,46.999542],[32.974915,47.000214],[32.971344,46.999542],[32.965454,46.997375],[32.954895,46.990601],[32.951172,46.985657],[32.949463,46.98111],[32.949951,46.969727],[32.951172,46.962463],[32.952423,46.959137],[32.954285,46.956024],[32.957062,46.953552],[32.960785,46.951721],[32.965912,46.950958],[33.001312,46.950958],[33.005493,46.950195],[33.009064,46.948547],[33.011993,46.946106],[33.014343,46.943329],[33.015106,46.940033],[33.010132,46.936157],[32.999603,46.932526],[32.958923,46.924957],[32.946075,46.919617],[32.924316,46.90271],[32.91391,46.900024],[32.816467,46.888824],[32.811981,46.886963],[32.807007,46.882233],[32.806549,46.878662],[32.80777,46.875275],[32.811035,46.872894],[32.814758,46.870972],[32.818787,46.869629],[32.826447,46.868042],[32.849854,46.866577],[32.903839,46.870056],[32.91037,46.86853],[32.919495,46.865082],[32.924774,46.864563],[32.934845,46.865082],[32.938873,46.86441],[32.940735,46.861938],[32.931458,46.856934],[32.914093,46.850708],[32.83606,46.831757],[32.832336,46.829712],[32.828308,46.827942],[32.822052,46.826935],[32.772888,46.82843],[32.719513,46.823547],[32.708618,46.82373],[32.705658,46.824249],[32.701935,46.825745],[32.698547,46.82782],[32.695435,46.830353],[32.692657,46.833038],[32.685822,46.841583],[32.683044,46.844177],[32.679474,46.846466],[32.67514,46.84845],[32.652435,46.853455],[32.647644,46.855164],[32.643921,46.857269],[32.640656,46.859619],[32.632141,46.860779],[32.592865,46.859802],[32.582642,46.861572],[32.575195,46.863617],[32.57132,46.865845],[32.562775,46.866455],[32.557983,46.868011],[32.554565,46.870331],[32.551941,46.872772],[32.547394,46.874237],[32.542572,46.874207],[32.538391,46.872742],[32.536682,46.868286],[32.536682,46.853455],[32.536224,46.848663],[32.534973,46.844208],[32.533112,46.840576],[32.53064,46.83783],[32.527863,46.835846],[32.522583,46.83313],[32.514832,46.831696],[32.479736,46.829834],[32.469666,46.831329],[32.463165,46.833649],[32.461456,46.836731],[32.457245,46.84259],[32.45401,46.844971],[32.449493,46.846466],[32.444244,46.847107],[32.422791,46.845764],[32.389313,46.839508],[32.381805,46.836548],[32.374054,46.830627],[32.370178,46.825867],[32.358704,46.801422],[32.356384,46.798126],[32.351105,46.795746],[32.343201,46.794556],[32.317413,46.796204],[32.259247,46.810577],[32.24823,46.810883],[32.234894,46.809265],[32.228699,46.807556],[32.222656,46.804962],[32.2146,46.799286],[32.210571,46.7948],[32.207764,46.790344],[32.197937,46.771606],[32.188171,46.758606],[32.185394,46.755798],[32.178711,46.750946],[32.1716,46.746704],[32.154633,46.741669],[32.123016,46.735321],[32.112152,46.735229],[32.099457,46.73822],[32.082977,46.745209],[32.077698,46.746307],[32.07196,46.746765],[32.065125,46.74585],[32.057373,46.743896],[32.039825,46.735535],[32.032074,46.729706],[32.016724,46.726166],[31.966446,46.72699],[31.964996,46.722412],[31.96489,46.722076],[31.961426,46.7276],[31.950195,46.74176],[31.940277,46.75885],[31.936203,46.800354],[31.954758,46.831421],[31.981689,46.860321],[32.002441,46.895447],[32.007477,46.915222],[32.006683,46.930481],[31.995941,46.940369],[31.946045,46.946655],[31.935883,46.954803],[31.939209,46.967957],[31.968918,46.998657],[31.976898,47.009338],[31.970947,47.016327],[31.943695,47.018921],[31.900146,47.013611],[31.881104,47.015015],[31.865234,47.026337],[31.893234,47.06842],[31.89682,47.092712],[31.882324,47.118591],[31.868164,47.127319],[31.855713,47.129608],[31.845551,47.134003],[31.837891,47.149231],[31.834717,47.168182],[31.834473,47.178925],[31.830566,47.186737],[31.816742,47.197083],[31.761719,47.2005],[31.806152,47.192688],[31.816254,47.180847],[31.815598,47.12262],[31.819992,47.117065],[31.844727,47.112976],[31.851563,47.108337],[31.856613,47.103638],[31.861816,47.101501],[31.874268,47.093811],[31.866455,47.077026],[31.852295,47.060516],[31.844727,47.05368],[31.837402,47.008423],[31.868988,46.99884],[31.914063,47.003052],[31.947113,46.999084],[31.917725,46.976257],[31.904297,46.96051],[31.899414,46.943817],[31.907715,46.926453],[31.925629,46.922913],[31.947601,46.928162],[31.968262,46.936981],[31.972824,46.915344],[31.963379,46.885681],[31.945068,46.859497],[31.923187,46.848267],[31.898605,46.842896],[31.877441,46.828247],[31.864746,46.80658],[31.865234,46.779968],[31.902832,46.745178],[31.906738,46.73822],[31.899414,46.69397],[31.902344,46.676971],[31.907471,46.669159],[31.908539,46.66272],[31.899414,46.649597],[31.89209,46.643616],[31.870117,46.633118],[31.858398,46.62912],[31.814697,46.623016],[31.771484,46.627502],[31.674072,46.653198],[31.614426,46.649597],[31.597168,46.643188],[31.588715,46.629578],[31.578857,46.61731],[31.556808,46.614868],[31.548508,46.618042],[31.534515,46.627167],[31.525391,46.62912],[31.50415,46.627991],[31.493011,46.628723],[31.485031,46.632263],[31.480957,46.646423],[31.490891,46.663391],[31.546143,46.7276],[31.560226,46.749084],[31.559814,46.75885],[31.572113,46.766296],[31.618164,46.813446],[31.606125,46.826385],[31.597824,46.820435],[31.591309,46.805969],[31.583984,46.79364],[31.57666,46.789368],[31.557373,46.78363],[31.549316,46.779968],[31.543457,46.774841],[31.52417,46.754028],[31.522949,46.750305],[31.519531,46.747437],[31.508301,46.745178],[31.495605,46.750702],[31.481613,46.75885],[31.466797,46.783569],[31.456055,46.796021],[31.440674,46.800476],[31.451904,46.775452],[31.453781,46.769104],[31.455811,46.754578],[31.461914,46.748657],[31.470703,46.745331],[31.502121,46.727722],[31.505859,46.720398],[31.498291,46.707642],[31.47966,46.687195],[31.478195,46.683777],[31.462646,46.675232],[31.428558,46.637634],[31.416183,46.62912],[31.396652,46.626038],[31.352219,46.609314],[31.337646,46.601257],[31.323898,46.60614],[31.295746,46.608856],[31.282959,46.614868],[31.275558,46.607391],[31.256683,46.616394],[31.187988,46.628906],[31.187943,46.629089],[31.17244,46.684357],[31.17244,46.703217],[31.175079,46.707794],[31.178024,46.714966],[31.177704,46.720917],[31.176163,46.727173],[31.171814,46.736603],[31.164841,46.816467],[31.162201,46.825378],[31.14386,46.835785],[31.130219,46.841217],[31.126801,46.843445],[31.12355,46.846649],[31.112549,46.86441],[31.105255,46.872528],[31.098587,46.87738],[31.056366,46.897369],[31.050018,46.904419],[31.041183,46.916992],[31.032959,46.938477],[31.031509,46.947784],[31.033691,46.952332],[31.037308,46.953125],[31.088043,46.955627],[31.092697,46.95697],[31.096268,46.958984],[31.106339,46.971283],[31.109283,46.973938],[31.113785,46.975403],[31.118896,46.975677],[31.124008,46.975311],[31.128357,46.973877],[31.135178,46.96991],[31.139511,46.969208],[31.144073,46.969757],[31.153519,46.971832],[31.214508,46.974487],[31.21962,46.975311],[31.223953,46.977417],[31.229385,46.986359],[31.232178,46.989471],[31.235901,46.991547],[31.257034,46.997986],[31.260239,47.000092],[31.261841,47.00177],[31.267731,47.014099],[31.273148,47.029266],[31.277649,47.035828],[31.282913,47.040833],[31.288193,47.043884],[31.29454,47.050446],[31.296249,47.056427],[31.296722,47.063171],[31.296249,47.073517],[31.306793,47.090454],[31.306015,47.097534],[31.304153,47.101807],[31.300125,47.104462],[31.295319,47.105469],[31.27858,47.106323],[31.272842,47.107391],[31.269119,47.110352],[31.266022,47.115051],[31.262924,47.122986],[31.259918,47.127686],[31.257141,47.131409],[31.254547,47.134003],[31.243958,47.140594],[31.239929,47.144196],[31.235733,47.148895],[31.231247,47.158203],[31.227829,47.162903],[31.223495,47.165802],[31.213409,47.165802],[31.203903,47.163635],[31.191193,47.15918],[31.186539,47.158051],[31.1819,47.157715],[31.177399,47.158508],[31.173828,47.160156],[31.163132,47.166595],[31.153992,47.169983],[31.129913,47.174255],[31.124634,47.175964],[31.1203,47.178558],[31.116425,47.182312],[31.115173,47.186371],[31.114868,47.190582],[31.115952,47.198944],[31.118118,47.206909],[31.120911,47.209717],[31.124634,47.211548],[31.129288,47.212799],[31.139206,47.214539],[31.148102,47.217255],[31.151825,47.219208],[31.165619,47.229156],[31.168564,47.233643],[31.171967,47.24057],[31.169647,47.24939],[31.167633,47.255035],[31.159882,47.266602],[31.15802,47.268616],[31.156158,47.270111],[31.153671,47.271637],[31.149796,47.272278],[31.070175,47.260345],[31.039627,47.250916],[31.034302,47.251221],[31.029037,47.253326],[31.018021,47.265625],[31.013535,47.268433],[31.01059,47.269104],[30.97023,47.270111],[30.915298,47.276672],[30.902267,47.291107],[30.885529,47.316528],[30.838654,47.412659],[30.833847,47.429504],[30.8461,47.451294],[30.852615,47.467163],[30.855087,47.476013],[30.856339,47.486633],[30.856018,47.493896],[30.856796,47.499756],[30.857574,47.500366],[30.865219,47.503143],[30.868469,47.505402],[30.870331,47.508789],[30.871582,47.512512],[30.872192,47.522308],[30.868164,47.543427],[30.863358,47.549164],[30.849045,47.561005],[30.838196,47.574615],[30.831528,47.580505],[30.82486,47.583496],[30.79039,47.584381],[30.785736,47.586548],[30.785583,47.589325],[30.787598,47.592377],[30.78978,47.598022],[30.790863,47.60611],[30.788071,47.623474],[30.784653,47.630463],[30.779846,47.633728],[30.723831,47.625],[30.719803,47.623138],[30.717163,47.619995],[30.715454,47.615967],[30.710495,47.59903],[30.705688,47.592224],[30.702591,47.589661],[30.699127,47.587799],[30.694794,47.587921],[30.689987,47.589966],[30.685181,47.593414],[30.679443,47.601044],[30.675415,47.619141],[30.671234,47.623291],[30.665802,47.625641],[30.629776,47.625916],[30.623428,47.626831],[30.616913,47.628693],[30.604202,47.63559],[30.598312,47.637299],[30.59288,47.637482],[30.588242,47.636292],[30.578415,47.629028],[30.563217,47.621124],[30.554535,47.618317],[30.549728,47.617584],[30.544464,47.618408],[30.53981,47.620239],[30.535324,47.623749],[30.531281,47.626129],[30.526642,47.627625],[30.521622,47.627625],[30.475891,47.622101],[30.471344,47.623291],[30.467773,47.625458],[30.458008,47.63269],[30.453827,47.634918],[30.430252,47.643005],[30.420334,47.648346],[30.416565,47.652893],[30.413773,47.656982],[30.41037,47.666321],[30.403549,47.678894],[30.401993,47.683289],[30.40152,47.68692],[30.402298,47.69104],[30.404007,47.694641],[30.411133,47.704346],[30.413467,47.708191],[30.414597,47.712952],[30.413773,47.719696],[30.411133,47.723572],[30.407883,47.726837],[30.395325,47.733521],[30.381836,47.742615],[30.379196,47.747253],[30.378433,47.751648],[30.380127,47.75531],[30.383072,47.758209],[30.393616,47.765076],[30.396408,47.767548],[30.398422,47.770233],[30.399353,47.772278],[30.399353,47.776733],[30.394547,47.792145],[30.38974,47.796539],[30.384323,47.799225],[30.358063,47.806305],[30.347366,47.810547],[30.331406,47.821106],[30.327377,47.825836],[30.325043,47.82962],[30.323334,47.83429],[30.322098,47.837158],[30.297867,47.944855],[30.295532,47.949554],[30.292587,47.953186],[30.273209,47.968231],[30.262985,47.978607],[30.259109,47.981476],[30.255539,47.983643],[30.251205,47.985565],[30.226501,47.990234],[30.219986,47.992981],[30.217194,47.995972],[30.215958,47.998749],[30.215332,48.007965],[30.215958,48.011841],[30.216888,48.015503],[30.224792,48.024078],[30.225723,48.027557],[30.226028,48.031006],[30.225571,48.034546],[30.226196,48.047638],[30.225723,48.053375],[30.222321,48.056793],[30.209763,48.062073],[30.208984,48.065002],[30.210526,48.06781],[30.217667,48.072205],[30.221695,48.074066],[30.256012,48.084167],[30.271194,48.082947],[30.275223,48.084076],[30.281586,48.089233],[30.285309,48.091187],[30.290573,48.091827],[30.29631,48.09137],[30.301743,48.090118],[30.307007,48.089447],[30.311874,48.09024],[30.315277,48.092957],[30.316681,48.097046],[30.31636,48.102478],[30.311874,48.105469],[30.298645,48.110291],[30.29538,48.113495],[30.294296,48.117981],[30.29306,48.135712],[30.322311,48.134583],[30.330475,48.136261],[30.334915,48.142059],[30.341583,48.159851],[30.347519,48.163544],[30.501785,48.163544],[30.510254,48.16217],[30.519302,48.162048],[30.527252,48.161011],[30.571136,48.150391],[30.60994,48.144958],[30.619858,48.14502],[30.626221,48.146454],[30.628845,48.149048],[30.630707,48.151764],[30.634583,48.160004],[30.63681,48.16272],[30.645187,48.166595],[30.658356,48.171173],[30.704758,48.18158],[30.71608,48.182526],[30.745224,48.178894],[30.775665,48.179077],[30.789001,48.177765],[30.797531,48.17569],[30.799072,48.172607],[30.800003,48.169098],[30.80217,48.165161],[30.806519,48.161804],[30.816956,48.159058],[30.823151,48.159485],[30.827179,48.161865],[30.833847,48.174561],[30.836487,48.177704],[30.840988,48.181122],[30.850281,48.185272],[30.857101,48.186249],[30.863159,48.185669],[30.867798,48.18396],[30.871582,48.181793],[30.874527,48.179169],[30.876389,48.176147],[30.877319,48.172546],[30.877777,48.168823],[30.880096,48.164734],[30.885071,48.161011],[30.898239,48.157715],[30.906143,48.157104],[30.912659,48.157623],[30.91684,48.15921],[30.92041,48.161438],[30.923401,48.164429],[30.929138,48.168304],[30.937515,48.172455],[30.968826,48.17923],[30.97612,48.181641],[30.979218,48.184326],[30.981598,48.187653],[30.983612,48.191345],[30.986252,48.199982],[30.993835,48.205505],[31.007019,48.211182],[31.041794,48.219116],[31.062576,48.220978],[31.134872,48.216675],[31.150894,48.213074],[31.168564,48.21167],[31.177399,48.210114],[31.183441,48.207947],[31.185455,48.205048],[31.186539,48.20163],[31.189026,48.175049],[31.189804,48.171478],[31.19368,48.168152],[31.200394,48.165405],[31.223175,48.160919],[31.228149,48.158875],[31.229385,48.157196]]]},"properties":{"@id":"relation/72635","admin_level":"4","boundary":"administrative","flag":"http://upload.wikimedia.org/wikipedia/commons/e/e1/Flag_of_Mykolaiv_Oblast.svg","iso3166-2":"UA-48","koatuu":"4800000000","name":"Миколаївськаобласть","name:ar":"ميكولايفأوبلاست","name:be":"Мікалаеўскаявобласць","name:be-x-old":"Мікалаеўскаявобласьць","name:bg":"Николаевскаобласт","name:ca":"ProvínciadeMykolàïv","name:crh":"Mıkolayivvilâyeti","name:cs":"Mykolajivskáoblast","name:de":"OblastMykolajiw","name:en":"MykolaivOblast","name:eo":"Mikolajevaprovinco","name:es":"ÓblastdeMykolaiv","name:et":"Mõkolajivioblast","name:eu":"Mykolaivekooblasta","name:fa":"استانمیکولائیف","name:fi":"Mykolajivinalue","name:fr":"OblastdeMykolaïv","name:hr":"Mikolajivskaoblast","name:hu":"Mikolajiviterület","name:hy":"Նիկոլաևիմարզ","name:id":"OblastMykolaiv","name:it":"Oblast'diMykolaïv","name:ja":"ムィコラーイウ州","name:ka":"ნიკოლაევისოლქი","name:ko":"미콜라이우주","name:lt":"Mykolajivosritis","name:lv":"Nikolajevasapgabals","name:mk":"Николаевскаобласт","name:mr":"मिकोलाइव्हओब्लास्त","name:nl":"OblastMykolajiv","name:nn":"Mykolajivoblast","name:no":"Mykolajivoblast","name:pl":"Obwódmikołajowski","name:pnb":"میکولائیفاوبلاست","name:pt":"OblastdeMikolaiv","name:ro":"RegiuneaMîkolaiv","name:ru":"Николаевскаяобласть","name:rue":"Миколаївскаобласть","name:sco":"MykolaivOblast","name:sh":"Mikolajivskaoblast","name:sk":"Mykolajivskáoblasť","name:sr":"Миколајивскаобласт","name:sv":"Mykolajivoblast","name:tr":"MıkolayivOblastı","name:uk":"Миколаївськаобласть","name:vi":"Mykolaiv(tỉnh)","name:war":"MykolaivOblast","name:zh":"尼古拉耶夫州","name:zh-min-nan":"Mykolayivséng","type":"boundary","wikipedia":"uk:Миколаївська_область"}}