{"type":"Feature","geometry":{"type":"Polygon","coordinates":[[[29.953705,48.210175],[29.959442,48.209564],[29.967804,48.211304],[29.981186,48.216888],[29.983871,48.217712],[29.99675,48.220978],[30.013229,48.19931],[30.027756,48.174774],[30.047806,48.155182],[30.083466,48.143707],[30.29306,48.135712],[30.294296,48.117981],[30.29538,48.113495],[30.298645,48.110291],[30.311874,48.105469],[30.31636,48.102478],[30.316681,48.097046],[30.315277,48.092957],[30.311874,48.09024],[30.307007,48.089447],[30.301743,48.090118],[30.29631,48.09137],[30.290573,48.091827],[30.285309,48.091187],[30.281586,48.089233],[30.275223,48.084076],[30.271194,48.082947],[30.256012,48.084167],[30.221695,48.074066],[30.217667,48.072205],[30.210526,48.06781],[30.208984,48.065002],[30.209763,48.062073],[30.222321,48.056793],[30.225723,48.053375],[30.226196,48.047638],[30.225571,48.034546],[30.226028,48.031006],[30.225723,48.027557],[30.224792,48.024078],[30.216888,48.015503],[30.215958,48.011841],[30.215332,48.007965],[30.215958,47.998749],[30.217194,47.995972],[30.219986,47.992981],[30.226501,47.990234],[30.251205,47.985565],[30.255539,47.983643],[30.259109,47.981476],[30.262985,47.978607],[30.273209,47.968231],[30.292587,47.953186],[30.295532,47.949554],[30.297867,47.944855],[30.322098,47.837158],[30.323334,47.83429],[30.325043,47.82962],[30.327377,47.825836],[30.331406,47.821106],[30.347366,47.810547],[30.358063,47.806305],[30.384323,47.799225],[30.38974,47.796539],[30.394547,47.792145],[30.399353,47.776733],[30.399353,47.772278],[30.398422,47.770233],[30.396408,47.767548],[30.393616,47.765076],[30.383072,47.758209],[30.380127,47.75531],[30.378433,47.751648],[30.379196,47.747253],[30.381836,47.742615],[30.395325,47.733521],[30.407883,47.726837],[30.411133,47.723572],[30.413773,47.719696],[30.414597,47.712952],[30.413467,47.708191],[30.411133,47.704346],[30.404007,47.694641],[30.402298,47.69104],[30.40152,47.68692],[30.401993,47.683289],[30.403549,47.678894],[30.41037,47.666321],[30.413773,47.656982],[30.416565,47.652893],[30.420334,47.648346],[30.430252,47.643005],[30.453827,47.634918],[30.458008,47.63269],[30.467773,47.625458],[30.471344,47.623291],[30.475891,47.622101],[30.521622,47.627625],[30.526642,47.627625],[30.531281,47.626129],[30.535324,47.623749],[30.53981,47.620239],[30.544464,47.618408],[30.549728,47.617584],[30.554535,47.618317],[30.563217,47.621124],[30.578415,47.629028],[30.588242,47.636292],[30.59288,47.637482],[30.598312,47.637299],[30.604202,47.63559],[30.616913,47.628693],[30.623428,47.626831],[30.629776,47.625916],[30.665802,47.625641],[30.671234,47.623291],[30.675415,47.619141],[30.679443,47.601044],[30.685181,47.593414],[30.689987,47.589966],[30.694794,47.587921],[30.699127,47.587799],[30.702591,47.589661],[30.705688,47.592224],[30.710495,47.59903],[30.715454,47.615967],[30.717163,47.619995],[30.719803,47.623138],[30.723831,47.625],[30.779846,47.633728],[30.784653,47.630463],[30.788071,47.623474],[30.790863,47.60611],[30.78978,47.598022],[30.787598,47.592377],[30.785583,47.589325],[30.785736,47.586548],[30.79039,47.584381],[30.82486,47.583496],[30.831528,47.580505],[30.838196,47.574615],[30.849045,47.561005],[30.863358,47.549164],[30.868164,47.543427],[30.872192,47.522308],[30.871582,47.512512],[30.870331,47.508789],[30.868469,47.505402],[30.865219,47.503143],[30.857574,47.500366],[30.856796,47.499756],[30.856018,47.493896],[30.856339,47.486633],[30.855087,47.476013],[30.852615,47.467163],[30.8461,47.451294],[30.833847,47.429504],[30.838654,47.412659],[30.885529,47.316528],[30.902267,47.291107],[30.915298,47.276672],[30.97023,47.270111],[31.01059,47.269104],[31.013535,47.268433],[31.018021,47.265625],[31.029037,47.253326],[31.034302,47.251221],[31.039627,47.250916],[31.070175,47.260345],[31.149796,47.272278],[31.153671,47.271637],[31.156158,47.270111],[31.15802,47.268616],[31.159882,47.266602],[31.167633,47.255035],[31.169647,47.24939],[31.171967,47.24057],[31.168564,47.233643],[31.165619,47.229156],[31.151825,47.219208],[31.148102,47.217255],[31.139206,47.214539],[31.129288,47.212799],[31.124634,47.211548],[31.120911,47.209717],[31.118118,47.206909],[31.115952,47.198944],[31.114868,47.190582],[31.115173,47.186371],[31.116425,47.182312],[31.1203,47.178558],[31.124634,47.175964],[31.129913,47.174255],[31.153992,47.169983],[31.163132,47.166595],[31.173828,47.160156],[31.177399,47.158508],[31.1819,47.157715],[31.186539,47.158051],[31.191193,47.15918],[31.203903,47.163635],[31.213409,47.165802],[31.223495,47.165802],[31.227829,47.162903],[31.231247,47.158203],[31.235733,47.148895],[31.239929,47.144196],[31.243958,47.140594],[31.254547,47.134003],[31.257141,47.131409],[31.259918,47.127686],[31.262924,47.122986],[31.266022,47.115051],[31.269119,47.110352],[31.272842,47.107391],[31.27858,47.106323],[31.295319,47.105469],[31.300125,47.104462],[31.304153,47.101807],[31.306015,47.097534],[31.306793,47.090454],[31.296249,47.073517],[31.296722,47.063171],[31.296249,47.056427],[31.29454,47.050446],[31.288193,47.043884],[31.282913,47.040833],[31.277649,47.035828],[31.273148,47.029266],[31.267731,47.014099],[31.261841,47.00177],[31.260239,47.000092],[31.257034,46.997986],[31.235901,46.991547],[31.232178,46.989471],[31.229385,46.986359],[31.223953,46.977417],[31.21962,46.975311],[31.214508,46.974487],[31.153519,46.971832],[31.144073,46.969757],[31.139511,46.969208],[31.135178,46.96991],[31.128357,46.973877],[31.124008,46.975311],[31.118896,46.975677],[31.113785,46.975403],[31.109283,46.973938],[31.106339,46.971283],[31.096268,46.958984],[31.092697,46.95697],[31.088043,46.955627],[31.037308,46.953125],[31.033691,46.952332],[31.031509,46.947784],[31.032959,46.938477],[31.041183,46.916992],[31.050018,46.904419],[31.056366,46.897369],[31.098587,46.87738],[31.105255,46.872528],[31.112549,46.86441],[31.12355,46.846649],[31.126801,46.843445],[31.130219,46.841217],[31.14386,46.835785],[31.162201,46.825378],[31.164841,46.816467],[31.171814,46.736603],[31.176163,46.727173],[31.177704,46.720917],[31.178024,46.714966],[31.175079,46.707794],[31.17244,46.703217],[31.17244,46.684357],[31.187943,46.629089],[31.187988,46.628906],[31.186859,46.62912],[31.159515,46.628967],[31.108154,46.617737],[31.054535,46.612732],[31.013031,46.603333],[30.991379,46.601257],[30.982422,46.597382],[30.959229,46.583374],[30.950439,46.584106],[30.939133,46.587708],[30.926025,46.58429],[30.866943,46.555786],[30.854492,46.553406],[30.8125,46.560028],[30.802582,46.560242],[30.790695,46.552917],[30.76091,46.524353],[30.754883,46.515839],[30.758301,46.502563],[30.775238,46.477661],[30.782074,46.457214],[30.785889,46.457245],[30.793457,46.452332],[30.798187,46.446411],[30.792969,46.443542],[30.790375,46.441467],[30.786789,46.436493],[30.783539,46.430847],[30.77475,46.400604],[30.772461,46.396423],[30.731293,46.358582],[30.714523,46.347961],[30.660645,46.350891],[30.651855,46.344543],[30.656494,46.338989],[30.679367,46.328308],[30.686523,46.320007],[30.686768,46.309021],[30.682373,46.29953],[30.653488,46.259583],[30.583496,46.190308],[30.561859,46.161682],[30.547699,46.147766],[30.531982,46.141907],[30.523285,46.133759],[30.503418,46.09436],[30.494141,46.080444],[30.371262,45.997925],[30.261398,45.895477],[30.204926,45.855835],[30.138428,45.819763],[30.140961,45.832947],[30.135254,45.88913],[30.127441,45.891327],[30.118332,45.884491],[30.110596,45.875061],[30.105804,45.863464],[30.102295,45.836853],[30.100586,45.830292],[30.096848,45.8237],[30.096436,45.81842],[30.094574,45.814819],[30.08667,45.813538],[30.08432,45.815613],[30.078369,45.819397],[30.072433,45.820984],[30.06958,45.816711],[30.061203,45.813446],[30.014648,45.839661],[29.990723,45.847046],[29.968506,45.838928],[29.960449,45.819153],[29.958252,45.794617],[29.952881,45.771942],[29.943039,45.783508],[29.932373,45.792419],[29.932373,45.799866],[29.939133,45.810425],[29.935059,45.816132],[29.92627,45.813782],[29.918701,45.799866],[29.917725,45.782898],[29.922363,45.769409],[29.930176,45.759094],[29.939301,45.751526],[29.932373,45.724182],[29.927414,45.733704],[29.919678,45.74054],[29.898193,45.751526],[29.895752,45.755341],[29.89682,45.759888],[29.896164,45.763611],[29.887695,45.765106],[29.881683,45.763],[29.878754,45.75827],[29.876801,45.753601],[29.874023,45.751526],[29.85083,45.751099],[29.82373,45.74762],[29.802414,45.737488],[29.795746,45.717346],[29.803223,45.704163],[29.816406,45.697693],[29.843018,45.690643],[29.858246,45.679871],[29.86499,45.672333],[29.860107,45.668915],[29.842529,45.663879],[29.82666,45.654236],[29.80957,45.64856],[29.789063,45.655243],[29.786133,45.648895],[29.783859,45.646606],[29.784348,45.643616],[29.789063,45.635437],[29.774094,45.629578],[29.745941,45.62262],[29.733734,45.614319],[29.735031,45.640564],[29.723969,45.667419],[29.705246,45.688416],[29.682617,45.696838],[29.685303,45.704224],[29.679199,45.751526],[29.685791,45.7677],[29.69223,45.77533],[29.693848,45.781311],[29.685883,45.792419],[29.68042,45.798279],[29.677582,45.800171],[29.673996,45.801575],[29.65332,45.813843],[29.647461,45.818542],[29.642822,45.827209],[29.638184,45.826294],[29.633545,45.82135],[29.631348,45.813538],[29.634613,45.80661],[29.648682,45.793579],[29.651855,45.789001],[29.647949,45.781189],[29.629562,45.763489],[29.623871,45.751526],[29.622726,45.736206],[29.625336,45.728241],[29.630707,45.721497],[29.637543,45.7099],[29.603195,45.691284],[29.597168,45.652283],[29.599365,45.604431],[29.589691,45.559052],[29.61499,45.55011],[29.629074,45.546692],[29.648438,45.54538],[29.66684,45.548157],[29.681152,45.555115],[29.707031,45.573303],[29.694504,45.562195],[29.661621,45.525848],[29.648438,45.518127],[29.638031,45.513855],[29.631683,45.504456],[29.626709,45.495056],[29.62085,45.490784],[29.605148,45.487],[29.605713,45.478149],[29.621094,45.454407],[29.629639,45.446899],[29.640793,45.441772],[29.651855,45.442993],[29.655609,45.451843],[29.653809,45.463989],[29.656006,45.474182],[29.672363,45.477112],[29.672363,45.453827],[29.675293,45.449585],[29.681488,45.450165],[29.686523,45.453552],[29.685883,45.457245],[29.694336,45.455505],[29.702148,45.456604],[29.708664,45.452759],[29.713226,45.436218],[29.719727,45.451355],[29.724457,45.46814],[29.732269,45.475708],[29.747406,45.46344],[29.754639,45.447235],[29.755859,45.427856],[29.747803,45.414276],[29.727707,45.415649],[29.741867,45.40451],[29.750168,45.385803],[29.753906,45.364075],[29.756195,45.321228],[29.754883,45.312683],[29.751465,45.304138],[29.74292,45.290466],[29.741211,45.282196],[29.729736,45.258118],[29.727707,45.247742],[29.728683,45.239319],[29.729736,45.237732],[29.728027,45.236877],[29.70874,45.223328],[29.692383,45.216736],[29.674484,45.213562],[29.659073,45.215851],[29.659073,45.215881],[29.6642,45.223175],[29.666473,45.230621],[29.664978,45.237854],[29.659241,45.244141],[29.672272,45.272919],[29.667099,45.311859],[29.650253,45.3461],[29.628143,45.360779],[29.616348,45.365326],[29.569687,45.394928],[29.430634,45.430389],[29.353729,45.435913],[29.343918,45.43808],[29.332962,45.442108],[29.322113,45.443817],[29.312805,45.439331],[29.307022,45.434113],[29.299271,45.428894],[29.290482,45.424591],[29.281799,45.422272],[29.260818,45.422028],[29.244598,45.424194],[29.228165,45.423737],[29.206665,45.415405],[29.191574,45.406158],[29.183105,45.398987],[29.179382,45.391846],[29.174316,45.388947],[29.150131,45.387848],[29.141861,45.385071],[29.127502,45.374542],[29.110291,45.369049],[29.069519,45.360779],[29.018143,45.330872],[29.004608,45.32605],[28.982437,45.3255],[28.973648,45.323669],[28.966476,45.319855],[28.960419,45.311279],[28.957382,45.291992],[28.952835,45.285065],[28.929886,45.279083],[28.910034,45.287354],[28.893616,45.299805],[28.880844,45.306152],[28.858109,45.309052],[28.831802,45.322296],[28.816299,45.32605],[28.789734,45.321411],[28.788605,45.307098],[28.790146,45.292053],[28.76152,45.28183],[28.759659,45.27417],[28.762558,45.265137],[28.767258,45.257751],[28.774292,45.253357],[28.802658,45.244141],[28.791397,45.234955],[28.778687,45.231079],[28.74736,45.230469],[28.710052,45.226929],[28.577042,45.248077],[28.494156,45.27887],[28.405167,45.295044],[28.370224,45.309204],[28.353287,45.312408],[28.330231,45.322906],[28.310806,45.347809],[28.281189,45.401825],[28.286407,45.421722],[28.266876,45.44046],[28.237625,45.452057],[28.215134,45.450348],[28.212921,45.450195],[28.199493,45.461761],[28.201553,45.468842],[28.208481,45.481384],[28.217163,45.493134],[28.217163,45.493164],[28.21727,45.493347],[28.270416,45.521454],[28.270493,45.521484],[28.341904,45.517609],[28.41684,45.503784],[28.480927,45.501953],[28.501999,45.508728],[28.506454,45.520569],[28.500046,45.554565],[28.497971,45.556427],[28.49823,45.558716],[28.503738,45.566101],[28.504593,45.56723],[28.510422,45.571014],[28.53688,45.579773],[28.523087,45.593231],[28.518753,45.607025],[28.516891,45.620972],[28.511307,45.63504],[28.498489,45.644287],[28.48288,45.650726],[28.473999,45.657928],[28.480927,45.669434],[28.504181,45.693695],[28.515228,45.701996],[28.532486,45.710052],[28.561432,45.716583],[28.567627,45.724579],[28.563522,45.735474],[28.560608,45.743195],[28.576675,45.761902],[28.6436,45.766479],[28.669739,45.777283],[28.673264,45.786865],[28.671921,45.797241],[28.669388,45.806274],[28.669739,45.812012],[28.677292,45.816559],[28.70639,45.821106],[28.725555,45.828766],[28.738266,45.837555],[28.745041,45.850464],[28.746429,45.870575],[28.742294,45.887329],[28.728394,45.921936],[28.729172,45.938629],[28.740234,45.953217],[28.757599,45.961151],[28.931946,45.993134],[28.956863,46.001373],[28.958923,46.020996],[28.941147,46.064667],[28.938766,46.089264],[28.946426,46.105072],[28.980835,46.132111],[29.003479,46.158936],[29.01535,46.182587],[29.009827,46.204346],[28.9841,46.221191],[28.95076,46.243042],[28.950607,46.243103],[28.933502,46.258972],[28.932877,46.272614],[28.939911,46.286987],[28.945801,46.304962],[28.94487,46.320709],[28.927307,46.368011],[28.919235,46.404633],[28.925446,46.43277],[28.945801,46.454773],[29.020325,46.489502],[29.055908,46.498718],[29.074936,46.503662],[29.162735,46.538086],[29.183044,46.538025],[29.184235,46.538025],[29.200211,46.523956],[29.206772,46.502502],[29.207596,46.417877],[29.205627,46.406097],[29.19928,46.396484],[29.190338,46.387177],[29.183411,46.377594],[29.183716,46.367157],[29.200668,46.357117],[29.222885,46.366455],[29.259171,46.394348],[29.271362,46.3974],[29.278183,46.395874],[29.283249,46.3974],[29.29007,46.410217],[29.290695,46.41925],[29.285934,46.439484],[29.289139,46.45163],[29.306717,46.471985],[29.32077,46.468719],[29.344223,46.434143],[29.362106,46.415924],[29.37471,46.416168],[29.418228,46.462463],[29.436829,46.476685],[29.456711,46.484344],[29.457611,46.48468],[29.480865,46.482025],[29.486435,46.475861],[29.48819,46.46936],[29.486237,46.462463],[29.480865,46.455505],[29.475281,46.44754],[29.473312,46.439789],[29.475067,46.432251],[29.480865,46.42514],[29.496048,46.420807],[29.527466,46.416626],[29.541428,46.413025],[29.555634,46.404175],[29.569427,46.382263],[29.582977,46.369629],[29.598572,46.363037],[29.615631,46.361816],[29.632065,46.366058],[29.645508,46.37558],[29.652939,46.391876],[29.64798,46.416382],[29.654388,46.422668],[29.682709,46.422913],[29.702866,46.428314],[29.713821,46.443054],[29.714127,46.471161],[29.726944,46.45578],[29.779556,46.421082],[29.800323,46.398346],[29.805084,46.389984],[29.806732,46.38089],[29.806168,46.361542],[29.808182,46.354675],[29.828125,46.339386],[29.847763,46.341461],[29.884659,46.364197],[29.902542,46.371155],[29.918655,46.373627],[30.037262,46.368927],[30.081131,46.374176],[30.107178,46.391876],[30.131561,46.422821],[30.11824,46.42868],[30.102005,46.430725],[30.086914,46.428864],[30.076996,46.422821],[30.059998,46.436798],[30.014053,46.462006],[30.021698,46.470642],[30.009399,46.488068],[30.002838,46.494202],[29.994934,46.498505],[29.989258,46.498657],[29.977051,46.493164],[29.970551,46.49173],[29.967026,46.493835],[29.962067,46.503418],[29.960205,46.50592],[29.916077,46.518799],[29.901917,46.530823],[29.898819,46.553101],[29.916077,46.554352],[29.938095,46.557312],[29.949661,46.578857],[29.947388,46.588318],[29.934937,46.608826],[29.931274,46.619141],[29.931885,46.632355],[29.93541,46.641846],[29.940262,46.650787],[29.944397,46.662476],[29.952606,46.72467],[29.951111,46.743103],[29.946671,46.750732],[29.935669,46.765137],[29.931793,46.77243],[29.93045,46.781616],[29.930649,46.80307],[29.928177,46.809753],[29.917419,46.813965],[29.9077,46.810913],[29.898514,46.806641],[29.889618,46.807159],[29.884872,46.812653],[29.876907,46.83078],[29.872208,46.837708],[29.843628,46.854126],[29.815201,46.856598],[29.785751,46.854645],[29.75412,46.858002],[29.735825,46.867188],[29.712479,46.893433],[29.696136,46.904663],[29.680847,46.908539],[29.648087,46.9104],[29.631851,46.914398],[29.623276,46.919525],[29.607574,46.932007],[29.59848,46.935364],[29.573151,46.933716],[29.567474,46.934631],[29.558685,46.94574],[29.559814,46.958832],[29.560623,46.961243],[29.564987,46.974487],[29.572479,47.011749],[29.583389,47.022766],[29.595428,47.032135],[29.603027,47.045746],[29.602097,47.060974],[29.594864,47.074585],[29.583389,47.085205],[29.57016,47.091431],[29.551346,47.090179],[29.539719,47.078857],[29.530991,47.06601],[29.520126,47.059906],[29.511444,47.06601],[29.480865,47.105225],[29.478683,47.108459],[29.477859,47.111542],[29.478592,47.114624],[29.480865,47.117462],[29.508667,47.119385],[29.530365,47.123688],[29.54483,47.135559],[29.550629,47.160156],[29.54039,47.212524],[29.544006,47.234222],[29.56871,47.243134],[29.580185,47.260437],[29.579254,47.2836],[29.570053,47.306763],[29.556564,47.324036],[29.539871,47.334198],[29.520966,47.338898],[29.501068,47.339813],[29.480865,47.338257],[29.470627,47.322723],[29.46608,47.307434],[29.459152,47.293488],[29.441681,47.282104],[29.425568,47.278656],[29.409546,47.279724],[29.394455,47.284698],[29.380814,47.292969],[29.37088,47.304413],[29.367584,47.308197],[29.364487,47.322418],[29.364075,47.336853],[29.358902,47.352692],[29.345825,47.365814],[29.330383,47.370483],[29.314667,47.372711],[29.300812,47.378174],[29.292709,47.388855],[29.288208,47.400757],[29.281387,47.411469],[29.250687,47.425354],[29.232605,47.44632],[29.218338,47.451599],[29.201859,47.446564],[29.192398,47.435791],[29.182068,47.429871],[29.163879,47.439362],[29.155609,47.449982],[29.139999,47.480133],[29.137177,47.483978],[29.130646,47.49292],[29.1306,47.493042],[29.130493,47.493073],[29.130386,47.493195],[29.117416,47.533325],[29.130493,47.559601],[29.156174,47.582764],[29.182068,47.61319],[29.192398,47.650909],[29.191467,47.686249],[29.196945,47.717499],[29.226669,47.743225],[29.238602,47.755981],[29.234726,47.766785],[29.221954,47.774811],[29.187439,47.783203],[29.177826,47.789703],[29.177719,47.80069],[29.186722,47.818207],[29.198914,47.829468],[29.217407,47.842865],[29.232758,47.857056],[29.236023,47.870697],[29.225998,47.87558],[29.186615,47.883636],[29.172562,47.890991],[29.164597,47.905579],[29.155807,47.93985],[29.147964,47.955353],[29.136276,47.96817],[29.123978,47.975983],[29.110031,47.979645],[29.092712,47.980164],[29.061035,47.969757],[29.017212,47.931061],[28.980835,47.926361],[28.950348,47.934784],[28.936081,47.942139],[28.914795,47.953125],[28.882553,47.976746],[28.862076,48.000488],[28.862091,48.000488],[28.879761,48.01059],[28.964203,48.035828],[28.985596,48.045532],[28.99707,48.056732],[29.010239,48.066498],[29.017685,48.070648],[29.034637,48.077026],[29.046112,48.083099],[29.048889,48.085724],[29.050293,48.089233],[29.050293,48.092804],[29.04982,48.096619],[29.042389,48.121094],[29.041138,48.128204],[29.042389,48.131622],[29.045013,48.134399],[29.049362,48.136414],[29.078247,48.14444],[29.086151,48.145691],[29.093292,48.145844],[29.103989,48.143555],[29.109558,48.140961],[29.113907,48.138245],[29.117004,48.135712],[29.135666,48.124847],[29.148987,48.119385],[29.15271,48.117249],[29.161545,48.109619],[29.169922,48.105743],[29.222534,48.091827],[29.240829,48.085022],[29.246307,48.084503],[29.33844,48.086212],[29.434662,48.113129],[29.449692,48.113525],[29.454346,48.111359],[29.458374,48.108948],[29.497192,48.092804],[29.510361,48.090424],[29.58551,48.087128],[29.641678,48.090881],[29.651138,48.093231],[29.656097,48.093781],[29.660904,48.093323],[29.670197,48.090332],[29.675003,48.09024],[29.67981,48.092194],[29.696609,48.125519],[29.698166,48.131683],[29.69754,48.136414],[29.695374,48.139374],[29.692886,48.142151],[29.672211,48.160004],[29.667419,48.165741],[29.665863,48.168945],[29.666641,48.173065],[29.671127,48.177368],[29.682449,48.182068],[29.692429,48.181122],[29.698471,48.179626],[29.709015,48.180176],[29.717224,48.181641],[29.774796,48.203094],[29.799957,48.206146],[29.816086,48.210327],[29.820419,48.210999],[29.825851,48.210083],[29.831436,48.208099],[29.848648,48.19928],[29.853195,48.196014],[29.855774,48.193268],[29.868073,48.18335],[29.872101,48.181183],[29.876602,48.180023],[29.882172,48.179993],[29.887756,48.182404],[29.891785,48.184998],[29.9151,48.213531],[29.920685,48.219269],[29.924088,48.221527],[29.929047,48.222198],[29.935257,48.22113],[29.948425,48.212738],[29.953705,48.210175]]]},"properties":{"@id":"relation/72634","admin_level":"4","boundary":"administrative","iso3166-2":"UA-51","koatuu":"5100000000","name":"Одеськаобласть","name:ar":"أوديساأوبلاست","name:az":"Odessavilayəti","name:be":"Адэскаявобласць","name:be-x-old":"Адэскаявобласьць","name:bg":"Одескаобласт","name:ca":"Provínciad'Odessa","name:crh":"Adesvilâyeti","name:cs":"Oděskáoblast","name:de":"OblastOdessa","name:en":"OdessaOblast","name:eo":"Odesaprovinco","name:es":"ÓblastdeOdesa","name:et":"Odessaoblast","name:eu":"Odesakooblasta","name:fa":"استاناودسا","name:fi":"Odessanalue","name:fr":"Oblastd'Odessa","name:hr":"Odeškaoblast","name:hu":"Odesszaiterület","name:hy":"Օդեսայիմարզ","name:id":"OblastOdessa","name:it":"Oblast'diOdessa","name:ja":"オデッサ州","name:ka":"ოდესისოლქი","name:ko":"오데사주","name:lt":"Odesossritis","name:lv":"Odesasapgabals","name:mk":"Одескаобласт","name:mr":"ओदेसाओब्लास्त","name:nl":"OblastOdessa","name:nn":"Odessaoblast","name:no":"Odessaoblast","name:os":"Одессæйыоблæст","name:pl":"Obwódodeski","name:pnb":"اودیسااوبلاست","name:pt":"OblastdeOdesa","name:ro":"RegiuneaOdesa","name:ru":"Одесскаяобласть","name:rue":"Одескаобласть","name:sco":"OdessaOblast","name:sh":"Odeškaoblast","name:sk":"Odeskáoblasť","name:sr":"Одешкаобласт","name:sv":"Odessaoblast","name:tr":"OdessaOblastı","name:uk":"Одеськаобласть","name:ur":"اودیسااوبلاست","name:vi":"Odessa(tỉnh)","name:war":"OdessaOblast","name:xmf":"ოდესაშოლქი","name:zh":"敖德萨州","name:zh-min-nan":"Odesaséng","type":"boundary","wikipedia":"uk:Одеська_область"}}