{"type":"Feature","geometry":{"type":"Polygon","coordinates":[[[33.333496,47.495728],[33.339417,47.495056],[33.345795,47.49527],[33.352448,47.497894],[33.355072,47.499298],[33.356018,47.500366],[33.356628,47.503601],[33.357574,47.506744],[33.359283,47.509857],[33.362061,47.512543],[33.365936,47.514343],[33.370575,47.515472],[33.476746,47.529907],[33.48526,47.532715],[33.488983,47.534973],[33.49176,47.537598],[33.493622,47.541016],[33.493927,47.544678],[33.493622,47.54834],[33.491913,47.555389],[33.491455,47.558716],[33.492065,47.56189],[33.494263,47.564148],[33.497406,47.56543],[33.503296,47.567108],[33.562866,47.575348],[33.569092,47.574615],[33.575439,47.572784],[33.583038,47.567596],[33.586914,47.56369],[33.588776,47.560028],[33.58847,47.556915],[33.586456,47.553925],[33.578705,47.544586],[33.57666,47.540955],[33.575287,47.537567],[33.575287,47.534271],[33.57901,47.527588],[33.582886,47.517914],[33.584412,47.514709],[33.588135,47.512177],[33.594513,47.510773],[33.617035,47.512329],[33.624329,47.511597],[33.630219,47.507629],[33.632996,47.504395],[33.634857,47.501678],[33.640289,47.491302],[33.642761,47.488495],[33.654388,47.486816],[33.752472,47.490997],[33.8797,47.513733],[33.901764,47.514435],[34.058197,47.480713],[34.157471,47.473877],[34.203705,47.478394],[34.230377,47.431458],[34.280518,47.318817],[34.290314,47.302063],[34.292175,47.29776],[34.293427,47.293793],[34.294037,47.278748],[34.295441,47.275055],[34.298401,47.272095],[34.304749,47.269775],[34.310333,47.269348],[34.315582,47.269897],[34.324432,47.272461],[34.335907,47.278229],[34.340454,47.279785],[34.353638,47.280762],[34.359375,47.279694],[34.373474,47.274414],[34.378601,47.273315],[34.384003,47.272888],[34.38913,47.273468],[34.393311,47.274872],[34.396576,47.277374],[34.400909,47.28479],[34.403748,47.287964],[34.409485,47.293427],[34.411499,47.296936],[34.412445,47.300781],[34.414001,47.304688],[34.416168,47.308014],[34.419891,47.310211],[34.428558,47.312897],[34.496368,47.317566],[34.500092,47.317047],[34.503479,47.315979],[34.506439,47.313904],[34.508301,47.311127],[34.506744,47.307068],[34.50412,47.304688],[34.500854,47.303101],[34.486115,47.298737],[34.482574,47.296692],[34.479614,47.293854],[34.477753,47.289978],[34.476349,47.285736],[34.475128,47.277466],[34.475128,47.273651],[34.476196,47.269501],[34.479156,47.265717],[34.485657,47.26123],[34.500702,47.253693],[34.503021,47.250763],[34.504578,47.246521],[34.504425,47.238647],[34.502563,47.234375],[34.500244,47.231781],[34.495117,47.228668],[34.49295,47.226013],[34.491699,47.222321],[34.491547,47.218719],[34.492188,47.215179],[34.500397,47.187805],[34.500854,47.184296],[34.500854,47.180725],[34.497437,47.159912],[34.497284,47.156006],[34.497925,47.14856],[34.499146,47.141388],[34.503174,47.127899],[34.504425,47.120789],[34.506134,47.116943],[34.509552,47.113281],[34.518127,47.109711],[34.531769,47.106415],[34.536865,47.103943],[34.540436,47.099701],[34.556549,47.052399],[34.557953,47.018524],[34.559662,47.011597],[34.561981,47.008179],[34.565857,47.005249],[34.57428,47.002563],[34.587921,47.000488],[34.58902,47.000092],[34.592102,46.99823],[34.595062,46.994812],[34.597839,46.989777],[34.600952,46.980225],[34.603729,46.965546],[34.605133,46.96225],[34.608398,46.959198],[34.614899,46.956665],[34.639618,46.953094],[34.644562,46.951538],[34.648895,46.949677],[34.66037,46.943024],[34.669373,46.939423],[34.717804,46.928497],[34.721985,46.926514],[34.725555,46.922852],[34.729126,46.917419],[34.740021,46.885406],[34.742645,46.881836],[34.746368,46.878418],[34.753815,46.874634],[34.759857,46.873413],[34.771332,46.872498],[34.776459,46.871246],[34.780792,46.869385],[34.784363,46.867188],[34.788269,46.862183],[34.791809,46.85495],[34.796509,46.839539],[34.796661,46.831726],[34.794312,46.826935],[34.790436,46.825134],[34.764038,46.817322],[34.754578,46.815552],[34.750397,46.814026],[34.747467,46.811707],[34.745758,46.808441],[34.744812,46.804718],[34.744049,46.781769],[34.742645,46.77832],[34.740631,46.775421],[34.733917,46.769318],[34.731445,46.766388],[34.729126,46.762756],[34.723541,46.75061],[34.721039,46.747375],[34.717957,46.744751],[34.714081,46.74292],[34.705383,46.740265],[34.697937,46.736298],[34.692047,46.730591],[34.689728,46.727203],[34.686798,46.724274],[34.68338,46.722168],[34.678741,46.721069],[34.673706,46.720306],[34.646423,46.719879],[34.641479,46.719147],[34.637115,46.717896],[34.63324,46.71582],[34.63031,46.713409],[34.627991,46.71048],[34.62735,46.707001],[34.62735,46.703522],[34.629211,46.69278],[34.631226,46.689026],[34.635406,46.68576],[34.645508,46.683075],[34.651703,46.683319],[34.657135,46.684357],[34.661163,46.685608],[34.667053,46.684357],[34.68399,46.675262],[34.691437,46.672791],[34.698425,46.671204],[34.72168,46.668976],[34.727722,46.666473],[34.732666,46.662292],[34.738007,46.653564],[34.742645,46.643921],[34.744507,46.637177],[34.744965,46.633575],[34.744354,46.629852],[34.742645,46.626282],[34.739868,46.623199],[34.730042,46.615845],[34.724609,46.609802],[34.722748,46.606262],[34.721832,46.602631],[34.722137,46.598969],[34.723389,46.595703],[34.72525,46.592651],[34.729431,46.586914],[34.753662,46.560364],[34.755676,46.556793],[34.757233,46.553253],[34.759094,46.550171],[34.762177,46.547211],[34.766998,46.544983],[34.776306,46.543732],[34.810608,46.544678],[34.857635,46.541718],[34.862915,46.539948],[34.866302,46.536774],[34.866455,46.530579],[34.864441,46.526642],[34.861206,46.523621],[34.857788,46.521576],[34.854675,46.519226],[34.853149,46.516174],[34.852814,46.512573],[34.853149,46.502319],[34.853455,46.500916],[34.85376,46.500153],[34.858246,46.498444],[34.871429,46.49765],[34.918152,46.500824],[34.923737,46.500305],[34.9245,46.5],[34.946503,46.485992],[34.960144,46.480469],[34.968903,46.479126],[34.98407,46.471985],[34.989655,46.470245],[34.994934,46.469452],[35.023346,46.469025],[35.029388,46.464783],[35.035309,46.45639],[35.060089,46.38443],[35.061035,46.379181],[35.060242,46.374817],[35.054688,46.363098],[35.053284,46.35907],[35.052643,46.355194],[35.053284,46.3479],[35.059021,46.327789],[35.059479,46.323914],[35.059631,46.306],[35.069305,46.299896],[35.105042,46.295044],[35.075043,46.271057],[35.030762,46.25177],[34.936035,46.235413],[34.926514,46.235046],[34.914063,46.238098],[34.908051,46.244263],[34.907227,46.251648],[34.904785,46.255676],[34.893555,46.25177],[34.886566,46.242737],[34.885406,46.231384],[34.882172,46.221741],[34.838867,46.207642],[34.835114,46.203186],[34.817627,46.186218],[34.812256,46.176636],[34.811279,46.166229],[34.813232,46.158264],[34.819092,46.141907],[34.824219,46.077942],[34.828949,46.063416],[34.838531,46.047546],[34.874359,45.926086],[34.883453,45.912811],[34.895172,45.901001],[34.905029,45.888611],[34.95816,45.78952],[34.977551,45.762853],[34.959698,45.756505],[34.945107,45.76393],[34.919357,45.774588],[34.864597,45.7941],[34.799023,45.810495],[34.802284,45.900641],[34.754391,45.908764],[34.725723,45.928349],[34.688988,45.954611],[34.674225,45.965351],[34.653454,45.976327],[34.633713,45.984677],[34.603672,45.994099],[34.587708,45.995531],[34.575863,45.995769],[34.563332,45.99398],[34.556808,45.991595],[34.55286,45.987659],[34.547195,45.979071],[34.522991,45.955327],[34.509602,45.946734],[34.495525,45.942198],[34.468746,45.946375],[34.441967,45.962487],[34.423771,45.978355],[34.413128,45.989329],[34.410896,45.996485],[34.408836,46.005786],[34.347038,46.055603],[34.330559,46.060844],[34.248848,46.052982],[34.18293,46.067038],[34.176064,46.072278],[34.154778,46.08109],[34.144478,46.087519],[34.124908,46.105613],[34.089546,46.114896],[34.080276,46.117276],[34.072723,46.117276],[34.053841,46.108707],[34.001312,46.125129],[33.988266,46.13417],[33.912735,46.160572],[33.871193,46.189814],[33.849907,46.198844],[33.838921,46.200983],[33.799095,46.20431],[33.75618,46.191002],[33.739357,46.185298],[33.700562,46.202884],[33.687172,46.205498],[33.664169,46.222603],[33.647003,46.230203],[33.614044,46.226165],[33.636875,46.141069],[33.620396,46.136311],[33.613434,46.145203],[33.596527,46.155731],[33.571533,46.149353],[33.549805,46.136414],[33.532471,46.121521],[33.53125,46.106873],[33.557861,46.094696],[33.557861,46.08728],[33.53125,46.085907],[33.505615,46.080261],[33.495758,46.067841],[33.516266,46.046326],[33.506348,46.046814],[33.485504,46.053162],[33.423828,46.053284],[33.415283,46.058075],[33.384277,46.087585],[33.357758,46.103821],[33.331055,46.107483],[33.310791,46.08728],[33.305817,46.092346],[33.301422,46.093628],[33.296387,46.093567],[33.290283,46.094696],[33.306885,46.10614],[33.317719,46.11969],[33.315674,46.130981],[33.293457,46.135681],[33.2146,46.128235],[33.221832,46.141479],[33.225342,46.154114],[33.235107,46.223816],[33.211914,46.206268],[33.194977,46.17868],[33.175049,46.153137],[33.143219,46.141907],[33.135498,46.140686],[33.122894,46.135864],[33.112793,46.135681],[33.103271,46.138367],[33.081787,46.149353],[33.023438,46.169861],[33.032471,46.140991],[33.018219,46.127655],[32.913086,46.115173],[32.899261,46.115204],[32.891602,46.116669],[32.88266,46.120667],[32.876129,46.121399],[32.85318,46.120331],[32.844574,46.121399],[32.789795,46.134338],[32.766266,46.135681],[32.751312,46.133026],[32.71402,46.120056],[32.588226,46.10437],[32.577789,46.101532],[32.567535,46.096558],[32.551025,46.08429],[32.543701,46.080444],[32.503418,46.076111],[32.30249,46.116669],[32.280518,46.127563],[32.267731,46.126587],[32.262451,46.128235],[32.260498,46.132141],[32.257324,46.144958],[32.255615,46.149353],[32.251709,46.15686],[32.247406,46.170715],[32.241943,46.176636],[32.260895,46.188599],[32.266754,46.194794],[32.269287,46.204559],[32.239258,46.195251],[32.213135,46.193054],[32.187347,46.196716],[32.142578,46.207977],[32.128662,46.209686],[32.115387,46.214539],[32.077881,46.249481],[32.05014,46.266052],[32.018066,46.257507],[31.96843,46.275696],[31.885742,46.320007],[31.884033,46.308655],[31.887939,46.295135],[31.889893,46.283813],[31.882324,46.279114],[31.819183,46.280579],[31.801117,46.285034],[31.785889,46.292358],[31.772461,46.302673],[31.767334,46.318176],[31.779953,46.331757],[31.799805,46.342224],[31.816742,46.347961],[31.837402,46.349548],[31.892578,46.341125],[31.968262,46.351044],[31.977295,46.355286],[32.029633,46.388977],[32.041656,46.390839],[32.055176,46.390564],[32.061859,46.393768],[32.053558,46.405975],[32.007813,46.448944],[31.991699,46.453552],[31.95459,46.450989],[31.910645,46.455872],[31.816284,46.483002],[31.816483,46.483093],[31.816589,46.483154],[31.851746,46.521942],[31.861816,46.519257],[31.947113,46.519257],[32.033447,46.506287],[32.091156,46.512817],[32.111664,46.512421],[32.221527,46.495422],[32.276123,46.470886],[32.317535,46.464325],[32.360992,46.466858],[32.399658,46.478333],[32.427002,46.49884],[32.408356,46.517273],[32.435699,46.543152],[32.505707,46.584106],[32.52475,46.592712],[32.570953,46.596405],[32.588379,46.604309],[32.60376,46.615692],[32.619385,46.623505],[32.633789,46.633118],[32.645508,46.649597],[32.621826,46.641785],[32.594574,46.628296],[32.567383,46.618469],[32.543701,46.621704],[32.409027,46.568909],[32.335785,46.562134],[32.269287,46.587585],[32.253754,46.604706],[32.248199,46.607391],[32.236816,46.604431],[32.220062,46.590698],[32.210938,46.587585],[32.199707,46.586487],[32.180176,46.581757],[32.169922,46.58075],[32.146332,46.560242],[32.13208,46.570282],[32.11792,46.606873],[32.101074,46.614868],[32.039551,46.623474],[32.022797,46.62912],[32.008942,46.639771],[31.99292,46.65741],[31.979828,46.677063],[31.974457,46.69397],[31.970703,46.71286],[31.96489,46.722076],[31.964996,46.722412],[31.966446,46.72699],[32.016724,46.726166],[32.032074,46.729706],[32.039825,46.735535],[32.057373,46.743896],[32.065125,46.74585],[32.07196,46.746765],[32.077698,46.746307],[32.082977,46.745209],[32.099457,46.73822],[32.112152,46.735229],[32.123016,46.735321],[32.154633,46.741669],[32.1716,46.746704],[32.178711,46.750946],[32.185394,46.755798],[32.188171,46.758606],[32.197937,46.771606],[32.207764,46.790344],[32.210571,46.7948],[32.2146,46.799286],[32.222656,46.804962],[32.228699,46.807556],[32.234894,46.809265],[32.24823,46.810883],[32.259247,46.810577],[32.317413,46.796204],[32.343201,46.794556],[32.351105,46.795746],[32.356384,46.798126],[32.358704,46.801422],[32.370178,46.825867],[32.374054,46.830627],[32.381805,46.836548],[32.389313,46.839508],[32.422791,46.845764],[32.444244,46.847107],[32.449493,46.846466],[32.45401,46.844971],[32.457245,46.84259],[32.461456,46.836731],[32.463165,46.833649],[32.469666,46.831329],[32.479736,46.829834],[32.514832,46.831696],[32.522583,46.83313],[32.527863,46.835846],[32.53064,46.83783],[32.533112,46.840576],[32.534973,46.844208],[32.536224,46.848663],[32.536682,46.853455],[32.536682,46.868286],[32.538391,46.872742],[32.542572,46.874207],[32.547394,46.874237],[32.551941,46.872772],[32.554565,46.870331],[32.557983,46.868011],[32.562775,46.866455],[32.57132,46.865845],[32.575195,46.863617],[32.582642,46.861572],[32.592865,46.859802],[32.632141,46.860779],[32.640656,46.859619],[32.643921,46.857269],[32.647644,46.855164],[32.652435,46.853455],[32.67514,46.84845],[32.679474,46.846466],[32.683044,46.844177],[32.685822,46.841583],[32.692657,46.833038],[32.695435,46.830353],[32.698547,46.82782],[32.701935,46.825745],[32.705658,46.824249],[32.708618,46.82373],[32.719513,46.823547],[32.772888,46.82843],[32.822052,46.826935],[32.828308,46.827942],[32.832336,46.829712],[32.83606,46.831757],[32.914093,46.850708],[32.931458,46.856934],[32.940735,46.861938],[32.938873,46.86441],[32.934845,46.865082],[32.924774,46.864563],[32.919495,46.865082],[32.91037,46.86853],[32.903839,46.870056],[32.849854,46.866577],[32.826447,46.868042],[32.818787,46.869629],[32.814758,46.870972],[32.811035,46.872894],[32.80777,46.875275],[32.806549,46.878662],[32.807007,46.882233],[32.811981,46.886963],[32.816467,46.888824],[32.91391,46.900024],[32.924316,46.90271],[32.946075,46.919617],[32.958923,46.924957],[32.999603,46.932526],[33.010132,46.936157],[33.015106,46.940033],[33.014343,46.943329],[33.011993,46.946106],[33.009064,46.948547],[33.005493,46.950195],[33.001312,46.950958],[32.965912,46.950958],[32.960785,46.951721],[32.957062,46.953552],[32.954285,46.956024],[32.952423,46.959137],[32.951172,46.962463],[32.949951,46.969727],[32.949463,46.98111],[32.951172,46.985657],[32.954895,46.990601],[32.965454,46.997375],[32.971344,46.999542],[32.974915,47.000214],[32.976288,46.999542],[32.980652,46.996124],[32.985901,46.990814],[32.991943,46.985809],[32.998322,46.981934],[33.025024,46.96991],[33.026123,46.971619],[33.026276,46.974274],[33.026276,46.97757],[33.027496,46.980591],[33.028748,46.982605],[33.031555,46.985657],[33.049377,46.999756],[33.057953,47.008636],[33.06012,47.011902],[33.061676,47.01532],[33.061371,47.018616],[33.059357,47.021454],[33.01355,47.051056],[32.955994,47.074982],[32.950867,47.075928],[32.945587,47.07605],[32.930206,47.074799],[32.925232,47.075348],[32.921844,47.077332],[32.91983,47.080109],[32.918732,47.08905],[32.917328,47.094055],[32.915955,47.097015],[32.915314,47.100098],[32.915009,47.103516],[32.916412,47.107025],[32.918427,47.110352],[32.93631,47.126862],[32.962036,47.164429],[32.971191,47.181213],[32.976135,47.186768],[32.980804,47.187897],[32.98468,47.187012],[32.995422,47.177521],[32.998322,47.176636],[33.021301,47.176239],[33.035889,47.177917],[33.043182,47.180054],[33.048645,47.182617],[33.077942,47.206238],[33.083832,47.208923],[33.089569,47.20993],[33.094543,47.209045],[33.107147,47.203827],[33.112732,47.202545],[33.120636,47.202423],[33.124969,47.204559],[33.127289,47.208099],[33.12854,47.212189],[33.130554,47.216553],[33.136139,47.224304],[33.136597,47.226868],[33.134888,47.230957],[33.113495,47.256836],[33.107758,47.265717],[33.106201,47.268921],[33.105072,47.2724],[33.104675,47.276001],[33.104675,47.279877],[33.106201,47.288269],[33.111176,47.300415],[33.121094,47.319275],[33.123871,47.327332],[33.124512,47.330933],[33.124664,47.33371],[33.123871,47.339325],[33.12204,47.3461],[33.120636,47.349396],[33.099335,47.382355],[33.096252,47.384888],[33.092194,47.386627],[33.087402,47.38739],[33.053619,47.387573],[33.047668,47.38858],[33.042694,47.390076],[33.038666,47.392029],[33.034943,47.394257],[33.032166,47.396942],[33.029846,47.399841],[33.028137,47.402893],[33.026733,47.405884],[33.026123,47.408722],[33.027832,47.41214],[33.031372,47.416992],[33.047211,47.431274],[33.050507,47.436096],[33.052765,47.445038],[33.055267,47.450623],[33.058868,47.452179],[33.061829,47.451294],[33.064453,47.448853],[33.074524,47.433594],[33.079956,47.420654],[33.081818,47.417542],[33.085083,47.415253],[33.090179,47.414001],[33.095917,47.413422],[33.115051,47.41449],[33.124054,47.416382],[33.128235,47.419006],[33.130096,47.422577],[33.129944,47.426178],[33.128845,47.429596],[33.125275,47.43576],[33.123108,47.438599],[33.121399,47.441711],[33.120331,47.44519],[33.119995,47.448914],[33.120483,47.452942],[33.123108,47.461304],[33.124969,47.469696],[33.125275,47.473755],[33.124969,47.477295],[33.124207,47.480438],[33.123108,47.482788],[33.120178,47.487305],[33.117981,47.489929],[33.112885,47.498169],[33.111786,47.500275],[33.111633,47.501129],[33.111176,47.503082],[33.110962,47.506073],[33.112244,47.509857],[33.116455,47.516571],[33.118164,47.519989],[33.118622,47.523712],[33.117676,47.526917],[33.115662,47.529694],[33.109741,47.53418],[33.094849,47.542725],[33.091583,47.545197],[33.089264,47.547974],[33.088013,47.551361],[33.087402,47.554871],[33.086792,47.562408],[33.087402,47.574188],[33.089264,47.582855],[33.165436,47.568512],[33.170135,47.566803],[33.184723,47.557739],[33.19339,47.553894],[33.26709,47.543274],[33.283417,47.539307],[33.293182,47.535645],[33.2966,47.529449],[33.300323,47.519623],[33.302002,47.51651],[33.304016,47.51358],[33.306671,47.510773],[33.313171,47.505951],[33.322632,47.500275],[33.333496,47.495728]]]},"properties":{"admin_level":"4","boundary":"administrative","iso3166-2":"UA-65","koatuu":"6500000000","name":"Херсонськаобласть","name:ar":"خيرسونأوبلاست","name:az":"Xersonvilayəti","name:be":"Херсонскаявобласць","name:be-x-old":"Хэрсонскаявобласьць","name:bg":"Херсонскаобласт","name:ca":"ProvínciadeKherson","name:crh":"Hersonvilâyeti","name:cs":"Chersonskáoblast","name:de":"OblastCherson","name:diq":"Xerson","name:en":"KhersonOblast","name:eo":"Ĥersonaprovinco","name:es":"ÓblastdeJersón","name:et":"Hersonioblast","name:eu":"Khersongooblasta","name:fa":"استانخرسون","name:fi":"Hersoninalue","name:fr":"OblastdeKherson","name:ga":"CúigeKherson","name:hr":"Hersonskaoblast","name:hu":"Herszoniterület","name:hy":"Խերսոնիմարզ","name:id":"OblastKherson","name:it":"Oblast'diCherson","name:ja":"ヘルソン州","name:ka":"ხერსონისოლქი","name:ko":"헤르손주","name:lt":"Chersonosritis","name:lv":"Hersonasapgabals","name:mk":"Херсонскаобласт","name:mr":"खेर्सनओब्लास्त","name:ms":"OblastKherson","name:nl":"OblastCherson","name:nn":"Khersonoblast","name:no":"Khersonoblast","name:os":"Херсоныоблæст","name:pl":"Obwódchersoński","name:pnb":"خیرسوناوبلاست","name:pt":"OblastdeKherson","name:ro":"RegiuneaHerson","name:ru":"Херсонскаяобласть","name:rue":"Херсоньскаобласть","name:sco":"KhersonOblast","name:sh":"Hersonskaoblast","name:sk":"Chersonskáoblasť","name:sr":"Херсонскаобласт","name:sv":"Chersonoblast","name:szl":"Chersůńskiuobwůd","name:tr":"HersonOblastı","name:uk":"Херсонськаобласть","name:vi":"Kherson(tỉnh)","name:war":"KhersonOblast","name:zh":"赫尔松州","name:zh-min-nan":"Xersonséng","type":"boundary","wikipedia":"uk:Херсонська_область"}}